business_name,entity_type,address,city,state,zip
'S LAW JUSTICE FOR ALL INC,IDOMP,4191 DAIRY CT                             A                                         PORT ORANGE,BR32127     US4191 DAIRY CT,,A
"-ASSOCIATED ACCIDENT ATTORNEYS FOR GERALD SCHACKOW, P.A.",IDOMP,C/O GERALD D. SCHACKOW                    112 NW 33RD CT                            GAINESVILLE,FL32607       C/O GERALD D. SCHACKOW,,112 NW 33RD
"-COUNTY LITIGATION GROUP, P.A.",IDOMP,2295 N.W. CORPORATE BOULEVARD             SUITE 245B                                BOCA RATON,FL33431     US2295 N.W. CORPORATE BOUL,EVARD,SUITE 245B
"-COUNTY LITIGATION, P.A.",IDOMP,2295 N.W. CORPORATE BOULEVARD             SUITE 140                                 BOCA RATON,FL33431       2295 N.W. CORPORATE BOUL,EVARD,SUITE 140
"-LEGAL ACCIDENT NEGOTIATORS, INC.",IDOMP,2110 N.E. 206TH ST.                                                                 N. MIAMI BEACH,FL33179       2110 N.E. 206TH ST.,,
"-PAID LEGAL INEXPENSIVE JUSTICE, INC.",IDOMP,"2440 DEER CREEK CC BLVD., #102                                                      DEERFIELD BEACH",FL33442       2440 DEER CREEK CC BLVD.,", #102",
"A INJURY LAW, P.A.",ADOMP,"28059 US Hwy 19 N, Suite 300                                                        CLEARWATER","FL33761     US28059 US Hwy 19 N, Suite",300,
"A INJURY LAW, P.A.",ADOMP,121 ALHAMBRA PLAZA #1000                                                            CORAL GABLES,FL33134     US121 ALHAMBRA PLAZA #1000,,
"A LITIGATION & LEGAL CONSULTING, P.A.",IDOMP,4960 SW 72 AVENUE                         206                                       MIAMI,FL33155       4960 SW 72 AVENUE,,206
A LITIGATION AND LEGALCONSULTING P.A.,IDOMP,4960 SW 72 AVENUE                         206                                       MIAMI,FL33155       4960 SW 72 AVENUE,,206
"A WILLIS LAW INJURY ACCIDENT LAWYERS, P.A.",ADOMP,390 N. ORANGE AVENUE                      SUITE 2310                                ORLANDO,FL32801       po box 771031,,
ABILITY AND INJURY PLLC,AFLAL,4332 ELLINWOOD BLVD                                                                 PALM HARBOR,FL34685     US4332 ELLINWOOD BLVD,,
"ABOGADOS DE ACCIDENTES - MIAMI INJURY LAWYERS, P.A.",IDOMP,2915 BISCAYNE BLVD                        SUITE 200-44                              MIAMI,FL33137     US2915 BISCAYNE BLVD,,SUITE 200-44
"ABOT AACHEN AMERICAN ACCIDENT ATTORNEYS REFERRAL SERVICE, INC.",IDOMP,2730 SW 3RD AVE                                                                     MIAMI,FL33133       2730 SW 3RD AVE,,
"ACADEMY OF FLORIDA TRIAL LAWYERS, INC.",ADOMNP,218 S. MONROE STREET                                                                TALLAHASSEE,FL32301-1824US218 S. MONROE STREET,,
"ACCIDENT & INJURY LAWYER, P.A.",IDOMP,8004 N.W. 154TH STREET                    NO. 372                                   MIAMI LAKES,FL33016       8004 N.W. 154TH STREET,,NO. 372
"ACCIDENT & PERSONAL INJURY LAW GROUP, P.L.",AFLAL,129 N Federal Hwy                                                                   Lake Worth,FL33460     US129 N Federal Hwy,,
"ACCIDENT ATTORNEYS, P.A.",IDOMP,1506 NE 162 ST STE 300                                                              N MIAMI BEACH,FL33162       1506 NE 162 ST STE 300,,
"ACCIDENT CARE CLINIC, PLLC",IFLAL,303 Main Street                                                                     Safety Harbor,FL34695     US303 Main Street,,
"ACCIDENT CENTER, P.A.",IDOMP,2888 EAST OAKLAND PARK BLVD.                                                        FT. LAUDERDALE,FL33306       2888 EAST OAKLAND PARK B,LVD.,
ACCIDENT LAW GROUP LLC,IFLAL,8567 CORAL WAY                                                                      MIAMI,FL33155     UN24453 SW 110TH PL,,
"ACCIDENT LAW GROUP, P.A.",ADOMP,"2655 S. LE JEUNE RD., PH2 A-10                                                      CORAL GABLES","FL33134     US2655 S. LE JEUNE RD., PH",2 A-10,
"ACCIDENT LAW OFFICE OF SAMUEL W. BEARMAN, P.A.",IDOMP,1015 N 12TH AVE                                                                     PENSACOLA,FL32501       1015 N 12TH AVE,,
ACCIDENT LAWYER CONNECT LLC,IFLAL,30 N GOULD ST                             STE R                                     SHERIDAN,WY82801     US30 N GOULD ST,,STE R
ACCIDENT LAWYER IN MIAMI.COM INC.,ADOMP,351 NW LEJEUNE ROAD STE 202                                                         MIAMI,FL33126       351 NW LEJEUNE ROAD STE,202,
"ACCIDENT LAWYER, P.A.",ADOMP,101 N 12th St                                                                       TAMPA,FL33602     US101 N 12th St,,
"ACCIDENT LAWYERS, INC",IDOMP,351 NW LEJEUNE RD STE 202                                                           MIAMI,FL33126       351 NW LEJEUNE RD STE 20,2,
"ACCO JUSTICE, PLLC",AFLAL,"500 N FEDERAL HIGHWAY, STE 200                                                      FORT LAUDERDALE","FL33301       500 N FEDERAL HIGHWAY, S",TE 200,
"AHAMSON & UITERWYK INJURY LAWYERS, LLC",AFLAL,2639 MCCORMICK DR.                                                                  CLEARWATER,FL33759     US2519 N. MCMULLEN BOOTH R,D.,SUITE 510-30
"AL ADVICE & TRIAL OR RESOLUTION ADVOCACY, PLLC",AFLAL,"618 EAST SOUTH STREET, SUITE 500                                                    ORLANDO","FL32801       618 EAST SOUTH STREET, S",UITE 500,
"AL ADVICE & TRIAL SERVICES, PLLC",IFLAL,110 E BROWARD BLVD #1700                                                            FT LAUDERDALE,FL33301     US110 E BROWARD BLVD #1700,,
"AL ADVOCATION FOR JUSTICE AT LAW, LLC",IFLAL,3107 STIRLING ROAD                        STE. 205                                  FORT LAUDERDALE,FL33312       3107 STIRLING ROAD,,STE. 205
AL JUSTICE FOR ALL LEGAL EXPENSE INSURANCE CORPORATION,ADOMP,7880 Gate Parkway                         Suite 103                                 Jacksonville,FL32256     US7880 Gate Parkway,,Suite 103
"AL JUSTICE LAW CENTER, PC, PA",IFORP,"3200 WILSHIRE BLVD., S. TOWER, STE. 1380                                            LOS ANGELES","CA90010       3200 WILSHIRE BLVD.,",,"SOUTH TOWER,"
AL JUSTICE LAW GROUP LLC,IFLAL,1806 OLD OKEECHOBEE ROAD                  B                                         WEST PALM BEACH,FL33409       1806 OLD OKEECHOBEE ROAD,,B
AL LAWYERS OF COMPLEX LITIGATION INCORPORATED,ADOMNP,17 EAST MAIN STREET                       SUITE 200                                 PENSACOLA,FL32502       17 EAST MAIN STREET,,SUITE 200
ALDSON INJURY LAW PA,ADOMP,11711 STONEHAVEN WAY                                                                PALM BEACH GARDE,NS          FL33412     US11711 STONEHAVEN WAY,,
ALDSON INJURY LAW PLLC,IFLAL,11711 STONEHAVEN WAY                                                                WEST PALM BEACH,FL33412     UN11711 STONEHAVEN WAY,,
"ALEGAL JUSTICE CENTER, LLC",IFLAL,4521 WATCH HILL RD                                                                  ORLANDO,FL32808     US4521 WATCH HILL RD,,
"ALEGAL JUSTICE, LLC",AFLAL,2875 NE 191st Street                      Suite 500                                 Aventura,FL33180     US2875 NE 191st Street,,
"ALES INJURY LAW, P.A.",ADOMP,9100 South Dadeland Blvd.                                                           Miami,FL33156     US9100 South Dadeland Blvd,,
"ALVAREZ TRIAL LAW FIRM, P.A.",ADOMP,The Concorde Office Tower                 66 West Flagler Street                    Miami,FL33130     USThe Concorde Office Towe,r,66 West Flag
"AN INJURY LAW, PLLC",AFLAL,"300 South Pine Island Road, Suite 210                                               Plantation",FL33324     US300 South Pine Island Ro,"ad, Suite 210",
ANCED CHIROPRACTIC & INJURY CENTERS P.A.,IDOMP,115 NW 167TH ST 4TH FL                                                              N MIAMI BEACH,FL33169       115 NW 167TH ST 4TH FL,,
"ANCED SPINE & INJURY CENTER, P.A.",IDOMP,6944 W LINEBAUGH AVE                      SUITE 101                                 TAMPA,FL33625       6944 W LINEBAUGH AVE,,SUITE 101
"ANCED WELLNESS & INJURY CENTERS, P.A.",IDOMP,12471 W. LINEBAUGH AVE.                                                             TAMPA,FL33626       12471 W. LINEBAUGH AVE.,,
"ANDO LITIGATION LAWYER, PLLC",AFLAL,135 W CENTRAL BLVD                        300                                       ORLANDO,FL34786       8513 BOWDEN WAY,,
"ANDO TRIAL ATTORNEY, P.A.",ADOMP,1231 E. CONCORD STREET                                                              ORLANDO,FL32803     USPO BOX 540585,,
"ANTIC JUSTICE LAW GROUP, PLLC",IFLAL,118 E. Jefferson Street                                                             Orlando,FL32801     US118 E. Jefferson Street,,
ANTIC PARALEGAL & LITIGATION SUPPORT LLC,IFLAL,2655 Collins Ave                                                                    MIAMI BEACH,FL33140     US2655 Collins Ave,,
"ARD ACCIDENT & INJURY CHIROPRACTIC CLINIC, P.A.",IDOMP,6929-2 BEACH BLVD.                                                                  JACKSONVILLE,FL32216       6929-2 BEACH BLVD.,,
"ARDVARK AARON AMERICAN ACCIDENT ATTORNEYS, INC.",IDOMP,PO BOX 13821                                                                        MIAMI,FL33101       PO BOX 13821,,
"AREA TRIAL LAWYERS ASSOCIATION, INC.",IDOMNP,308 TAMPA STREET ROOM 345                                                           TAMPA FLA,33602       308 TAMPA STREET ROOM 34,5,
"ARELLI AND GUMULA INJURY FIRM, PLLC",IFLAL,351 AIRPORT RD. N.                                                                  NAPLES,FL34104       351 AIRPORT RD. N.,,
"AREZ GOWER INJURY LAW, PLLC",AFLAL,605 South Fremont Ave                                                               Tampa,FL33606     US605 South Fremont Ave,,
AREZ INJURY LAW PLLC,AFLAL,605 S Fremont Ave                                                                   Tampa,FL33606     US605 S Fremont Ave,,
"ARWATER HEALTH & INJURY CTR, P.A.",IDOMP,6485 N. FEDERAL HWY                                                                 BOCA RATON,FL33487       6485 N. FEDERAL HWY,,
AS LEGAL LITIGATION SUPPORT INC,IDOMP,118 E JEFFERSON ST                        SUITE 108                                 ORLANDO,FL32801     UN118 E JEFFERSON ST,,SUITE 108
"ASOTA INJURY LAW, A PRIVATE LAW FIRM, P.A.",IDOMP,308 COCOANUT AVENUE                                                                 SARASOTA,FL34236       308 COCOANUT AVENUE,,
"ASOTA TRIAL LAWYERS BOARD, INC.",ADOMP,2822 University Pkwy                                                                SARASOTA,FL34243-2410US2822 University Pkwy,,
"ATASTROPHIC INJURY LAW FIRM, P.A.",IDOMP,5006 TROUBLE CREEK RD STE 232                                                       NEW PORT RICHEY,FL34652       5006 TROUBLE CREEK RD ST,E 232,
"AUTO ACCIDENT ATTORNEYS, P.A.",ADOMP,12185 Broken Oak Ln                                                                 Odessa,FL33556     USP.O. BOX 45110,,
"AUTO INJURY TREATMENT CENTER, P.A.",IDOMP,"3460 COUNTRYSIDE BLVD., #42                                                         CLEARWATER",FL33761     US3014 W. ESTRELLA AVE,,SUITE 155
BAKER INJURY LAW PLLC,AFLAL,515 N. FLAGLER DRIVE                      SUITE 350                                 WEST PALM BEACH,FL33401     US515 N. FLAGLER DRIVE,,SUITE 350
"BEN INJURY LAW, PLLC",AFLAL,1200 N FEDERAL HWY STE 300                                                          BOCA RATON,FL33432     US1200 N FEDERAL HWY STE 3,00,
BISHOP INJURY LAW P.L.L.C.,AFLAL,3415 WEST LAKE MARY BLVD                  #951663                                   LAKE MARY,FL32795     US3415 WEST LAKE MARY BLVD,,#951663
"BURN INJURY LAW, LLC",AFLAL,2474 NW 63RD STREET                                                                 BOCA RATON,FL33496       2474 NW 63RD STREET,,
"BY INJURY LAW, P.A.",ADOMP,1314 E. LAS OLAS BLVD.                    SUITE 433                                 FORT LAUDERDALE,FL33301     US1314 E. LAS OLAS BLVD.,,SUITE 433
"CAN INJURY GROUP, PLLC",AFLAL,1601 FORUM PLACE                          SUITE 304                                 WEST PALM BEACH,FL33401       1601 FORUM PLACE,,SUITE 304
"CARE INJURY & REHAB, P.A.",IDOMP,5701 NORTH FEDERAL HWY                                                              BOCA RATON,FL33487       5701 NORTH FEDERAL HWY,,
"CCIDENT AND INJURY ATTORNEY - LAW OFFICES OF SCHACKOW AND MERCADANTE, P.A.",IDOMP,% SCHACKOW & MERCADANTE                   112 N.W. 33RD CT.                         GAINESVILLE,FL32607       % SCHACKOW & MERCADANTE,,112 N.W. 33R
"CCIDENT AND INJURY ATTORNEY LAW OFFICES OF ROBERT COLSKY, P.A.",IDOMP,% FILINGS INC.                            3756 NORTHWEST 16TH STREET                FORT LAUDERDALE,FL33311       % FILINGS INC.,,3756 NORTHWE
"CENTER FOR EMPLOYEE JUSTICE AND LABOR LAW REFORM, INC.",ADOMNP,9529 GISBORNE DR.                                                                   JACKSONVILLE,FL32208     US9529 GISBORNE DR.,,
"CENTER FOR LEGAL CONSULTANTS AND LITIGATION, INC.",IDOMP,7810 BALLANTYNE COMMONS PKWY              SUITE 300                                 CHARLOTTE,NC28277     US7810 BALLANTYNE COMMONS,PKWY,SUITE 300
CENTER FOR LEGAL JUSTICE LLC,IFLAL,"902 CLINT MOORE RD., STE 144                                                        BOCA RATON","FL33487     US902 CLINT MOORE RD., STE",144,
"CITY JUSTICE, P.A.",IDOMP,4069 Atlantic Boulevard                                                             Jacksonville,FL32207     US4069 Atlantic Boulevard,,
"CK ACCIDENT LAW FIRM, LLC",AFLAL,1200 RIVERPLACE BLVD                                                                JACKSONVILLE,FL32207     US1200 RIVERPLACE BLVD,,
CK ACCIDENT LAW GROUP LLC,AFLAL,5950 LAKEHURST DR.                        SUITE 270                                 ORLANDO,FL32819     US5950 Lakehurst Dr.,,
"CK ROCK TRIAL LAWYERS, PLLC",AFLAL,201 S. WESTLAND AVE                                                                 TAMPA,FL33606     US201 S. WESTLAND AVE,,
CK TRADEMARK & COPYRIGHT LAW LITIGATION LLC,AFLAL,860 6TH AVE S                             STE 1754                                  NAPLES,FL34102     US860 6TH AVE S,,STE 1754
"CKER INJURY LAW, P.A.",IDOMP,407 SOUTH EWING AVE                       SUITE 100                                 CLEARWATER,FL33756       407 SOUTH EWING AVE,,SUITE 100
CO INJURY LAW LLC,IFLAL,FILED IN ERROR                                                                      X,FL00000     UNFILED IN ERROR,,
CO INJURY LAW PLLC,IFLAL,4240 CHARLES SAMUEL DR                                                              TALLAHASSEE,FL32309     UN4240 CHARLES SAMUEL DR,,
CO INJURY LAW PLLC,AFLAL,10855 FIELDFAIR DR.                                                                 NAPLES,FL34119     US10855 FIELDFAIR DR.,,
COAST SPINE AND INJURY CENTER PLLC,IFLAL,"1831 N. Belcher Rd., Ste. B-2                                                       Clearwater","FL33765     US1831 N. Belcher Rd., Ste",. B-2,
"CONSUMER LITIGATION GROUP, P.A.",IDOMP,255 ALHAMBRA CIRCLE                       630                                       CORAL GABLES,FL33134     US255 ALHAMBRA CIRCLE,,630
"COUNT INJURY & ACCIDENT ATTORNEYS, PLLC",AFLAL,425 WEST COLONIAL DRIVE                   SUITE 103                                 ORLANDO,FL32804     US425 WEST COLONIAL DRIVE,,SUITE 103
"CRAIG DELESIE, JR., LITIGATION ATTORNEY PLLC",AFLAL,10821 BOYETTE RD                                                                    RIVERVIEW,FL33569     US10821 BOYETTE RD,,
"CRANE PERSONAL INJURY LAW, CORP.",AFORP,320 NORTH MAGNOLIA AVENUE STE B-9                                                   ORLANDO,FL32801     US320 NORTH MAGNOLIA AVENU,E STE B-9,
CRUISE-INJURY LAW FIRM P.A.,ADOMP,2915 BISCAYNE BLVD.                       SUITE 300                                 MIAMI,FL33137     US2915 BISCAYNE BLVD.,,SUITE 300
"D AND MATTER COUNSELING AND SOCIAL JUSTICE CENTER, LLC",IFLAL,"728 EXECUTIVE CENTER DR., UNIT 28                                                   WEST PALM BEACH",FL33401     USPO BOX 11817,,
D INJURY LAW PLLC,AFLAL,1530 W Boynton Beach Blvd                                                           Boynton Beach,FL33436     US1530 W Boynton Beach Blv,d,
"D INJURY LAW, P.A.",ADOMP,8551 W. SUNRISE BLVD.                     100M                                      PLANTATION,FL33322       8551 W. SUNRISE BLVD.,,100M
D INJURY SPECIALISTS PLLC,AFLAL,3945 W BROWARD BLVD UNIT 121041                                                     FORT LAUDERDALE,FL33312     US3945 W BROWARD BLVD UNIT,121041,
"D MEDICAL MALPRACTICE PARALEGAL, L.L.C.",IFLAL,5809 SIENA LANE                                                                     HOLLYWOOD,FL33021       5809 SIENA LANE,,
"D'ALEMBERTE TRIAL FIRM, P.A.",ADOMP,2901 S. Bayshore Dr                                                                 MIAMI,FL33133     US2901 S. Bayshore Drive,,
DAN LEGAL LITIGATION SUPPORT SERVICES & CONSULTING INC,IDOMP,3470 EAST COAST AVE                       UNIT #2405                                MIAMI,FL33137     USPO BOX 611702,,
"DAYTONA INJURY LAW FIRM, PLLC",AFLAL,10401 POINTVIEW CT                                                                  ORLANDO,FL32836     US10401 POINTVIEW CT,,
"DEMY OF FLORIDA PROBATE AND TRUST LITIGATION ATTORNEYS, INC.",IDOMNP,%ROHAN KELLEY                             3365 GALT OCEAN DRIVE                     FORT LAUDERDALE,FL33308       %ROHAN KELLEY,,3365 GALT OC
"DERHILL INJURY & ACCIDENT LAW FIRM, LLC",IFLAL,4200 NW 16 STREET                         232                                       LAUDERHILL,FL33313     US205 WEST DAVIE BOULEVARD,,
DERO LEGAL CONSULTING AND LITIGATION P.A.,IDOMP,175 SW 7TH STREET                         SUITE 1912                                MIAMI,FL33130       175 SW 7TH STREET,,SUITE 1912
"DERS LITIGATION FIRM, PLLC",IFLAL,1015 E SUNRISE BLVD                       UNIT 1-202                                FORT LAUDERDAE,FL33304     US1015 E SUNRISE BLVD UNIT,1-202,UNIT 1-202
"DEZ INJURY FIRM, P.A.",ADOMP,9020 SW 137TH AVE                                                                   MIAMI,FL33186     US9020 SW 137TH AVE,,
"DISC INJURY CENTER OF FORT MYERS, P.A.",IDOMP,"12631 WORLD PLAZA LANE, BUILDING 54                                                 FORT MYERS","FL33907       12631 WORLD PLAZA LANE,",BUILDING 54,
"DLAW SWEET JUSTICE, LLC",AFLAL,"1641 WORTHINGTON ROAD, SUITE 300                                                    WEST PALM BEACH","FL33409     US1641 WORTHINGTON ROAD, S",UITE 300,
"DOVA INJURY CLINIC, P.A.",IDOMP,5599 NORTH W STREET                                                                 PENSACOLA,FL32505       5599 NORTH W STREET,,
"DSON BRAIN SPINE INJURY LAW OFFICE, PA",ADOMP,2210 Front St                             Suite 307                                 Melbourne,FL32901     US2202 WOODFIELD CIRCLE,,
"DT TRIAL SOLUTIONS, PLLC",IFLAL,1623 SERENITY CIRCLE                                                                NAPLES,FL34110     US1623 SERENITY CIRCLE,,
"DUCT LIABILITY JUSTICE, PLLC",IFLAL,500 N FEDERAL HIGHWAY                     SUITE 200                                 FORT LAUDERDALE,FL33301     US500 N FEDERAL HIGHWAY,,SUITE 200
"DY INJURY LAW, PLLC",AFLAL,6650 10th Avenue North                                                              St. Petersburg,FL33710     US6650 10th Avenue North,,
"E FINK TRIAL LAWYERS, P.A.",IDOMP,1614 COLONIAL BLVD                                                                  FORT MYERS,FL33907     US1614 COLONIAL BLVD,,
"E HUBER TRIAL ATTORNEYS, P.A.",ADOMP,4600 MILITARY TRAIL                       SUITE 212                                 JUPITER,FL33458       4600 MILITARY TRAIL,,SUITE 212
"E INJURY CENTER, P.A.",IDOMP,1881 W. OAKLAND PARK BLVD                                                           FORT LAUDERDALE,FL33311       1881 W. OAKLAND PARK BLV,D,
"E INJURY LAW, P.A.",ADOMP,"25 SE 2nd Avenue, Suite 808-6                                                       Miami","FL33131     US25 SE 2nd Avenue, Suite",808-6,
"E J. RICKERT, LITIGATION ATTORNEY, PROFESSIONAL LLC",IFLAL,528 West Davis Blvd                                                                 Tampa,FL33606     US301 W. Platt Street,,#517
"E JUSTICE LAW, PLLC",AFLAL,291 21ST ST NW                                                                      NAPLES,FL34120     US291 21ST ST NW,,
E JUSTICE NOW P.A.,IDOMP,404 S MELVILLE AVE UNIT 4                                                           TAMPA,FL33606       404 S MELVILLE AVE UNIT,4,
E LITIGATION P.A.,IDOMP,2060 Winter Springs Blvd.                                                           Oviedo,FL32765     US2060 Winter Springs Blvd,.,
"E SHIRT JUSTICE, P.A.",IDOMP,210 E FORSYTH STREET                                                                JACKSONVILLE,FL32202       210 E FORSYTH STREET,,
E. LEVENSON TRIAL LAWYER PA,ADOMP,1500 GATEWAY BLVD                         220                                       BOYNTON BEACH,FL33426     US1500 GATEWAY BLVD,,220
"EAM - ASSOCIATION OF TRIAL EXPERIENCED ATTORNEY MASTERS OF NORTHWEST FLORIDA, INC.",IDOMP,310 ELMIRA ST                                                                       MLTON,FL32570       310 ELMIRA ST,,
"ECLOSURE AND CONSUMER LITIGATION CLINIC, PLLC",IFLAL,801 NORTHPOINT PARKWAY                    85                                        WEST PALM BEACH,FL33407       801 NORTHPOINT PARKWAY,,85
"EED A PERSONAL INJURY LAWYER.COM, INC",IDOMP,102 NORTHEAST 2ND STREET                  348                                       BOCA RATON,FL33432       102 NORTHEAST 2ND STREET,,348
"EETS LITIGATION MANAGEMENT, PLLC",AFLAL,603 E FORT KING STREET                                                              OCALA,FL34471     US603 E FORT KING STREET,,
"EGA TRIAL LAW, P.A.",ADOMP,14618 SW 142ND COURT                                                                MIAMI,FL33186     US14618 SW 142ND COURT,,
"EGAN TRIAL LAW, P.A.",IDOMP,114 CRESTWOOD COURT SOUTH                                                           SAFETY HARBOR,FL34695     US114 CRESTWOOD COURT SOUT,H,
EGO INJURY PROTECTION ATTORNEYS P.A.,IDOMP,3201 W. TAMPA BAY BLVD.                                                             TAMPA,FL33607       3201 W. TAMPA BAY BLVD.,,
"EL INJURY LAW, P.A.",IDOMP,2630 W BROWARD BLVD.                      STE 203-144                               FORT LAUDERDALE,FL33312     US2630 W BROWARD BLVD.,,STE 203-144
"EL TRIAL LAW, PLLC",AFLAL,2064 PARK STREET                                                                    JACKSONVILLE,FL32204     US2064 PARK STREET,,
"ELL INJURY LAW, P.A.",ADOMP,2033 W. James Lee Blvd.                                                             CRESTVIEW,FL32536     US2033 W. James Lee Blvd.,,
"ELLAS COUNTY TRIAL LAWYERS ASSOCIATION, INC.",ADOMNP,2510 1st Ave. N.                                                                    St. Petersburg,FL33713     US2510 1st Ave. N.,,
"ELLAS TRIAL LAWYERS, INC.",IDOMNP,700 CENTRAL AVENUE                        SUITE 401                                 ST. PETERSBURG,FL            700 CENTRAL AVENUE,,SUITE 401
"ELLI TRIAL LAWYERS, P.A.",ADOMP,4800 N FEDERAL HWY STE #202E                                                        BOCA RATON,FL33431       4800 N FEDERAL HWY STE #,202E,
"EMAN INJURY LAW, P.A.",IDOMP,201 N. SR 7                                                                         MARGATE,FL33063       201 N. SR 7,,
"EMAN INJURY LAW, P.A.",ADOMP,5 Harvard Circle                                                                    West Palm Beach,FL33409     US5 Harvard Circle,,
"EN INJURY LAW, P.A.",ADOMP,5599 S. University Drive                  Suite 206                                 Davie,FL33328     US5599 S. University Drive,,Suite 206
"EN INJURY LAW, PLLC",AFLAL,300 SE 2ND STREET                         SUITE 600                                 FORT LAUDERDALE,FL33301       300 SE 2ND STREET,,SUITE 600
"EN LAW ACCIDENT INJURY LAWYERS, P.A.",ADOMP,6241 NW 23RD ST                           3RD FL                                    GAINESVILLE,FL32653     USP.O. BOX 5757,,
"EN'S TRIAL GROUP INTERNATIONAL, PLLC",IFLAL,319 Clematis St.                                                                    West Palm Beach,FL33401     US319 Clematis St.,,
"ENBERG INJURY LAW, PLLC",AFLAL,2500 N. MILITARY TRAIL                    235                                       BOCA RATON,FL33431     US2500 N. MILITARY TRAIL,,235
"ENDS OF JUSTICE, PLLC",IFLAL,26 INDUSTRIAL LOOP                        UNIT 170                                  ORANGE PARK,FL32073     UNPO BOX 51294,,
ENFELD INJURY LAWYERS LLC,AFLAL,1341 EAGLE RUN DRIVE                                                                SANIBEL,FL33957     US1341 EAGLE RUN DRIVE,,
"ENHEIMER PERSONAL INJURY LAW FIRM, P.A.",ADOMP,"1930 Harrison Street, Suite 103                                                     HOLLYWOOD","FL33020     US1930 Harrison Street, Su",ite 103,
ENSIC LITIGATION AND VALUATION EXPERTS PLLC,AFLAL,400 N ASHLEY DRIVE                        SUITE 2600                                TAMPA,FL33602     US400 N ASHLEY DRIVE,,SUITE 2600
"ENSIC, LITIGATION AND ACCOUNTING CONSULTANTS, PLLC",IFLAL,815 N LAKE DAVIS DRIVE                                                              ORLANDO,FL32806       815 N LAKE DAVIS DRIVE,,
ER INJURY LAW PA,ADOMP,1101 MIRANDA LANE                                                                   KISSIMMEE,FL34741     US1101 MIRANDA LANE,,
ER INJURY LAW PLLC,AFLAL,605 S FREMONT AVE                                                                   TAMPA,FL33606     US605 S FREMONT AVE,,
"ER MEDICAL INJURY GROUP,PLLC",IFLAL,910 NORTH PINE HILLS RD                                                             ORLANDO,FL32808       910 NORTH PINE HILLS RD,,
ERAN LEGAL JUSTICE LLC,IFLAL,2110 N. OCEAN BLVD                        TOWER 2 APT 9B                            FORT LAUDERDALE,FL33305     US2110 N. OCEAN BLVD,,TOWER 2 APT
"ERATION CHIROPRACTIC INJURY AND REHABILITATION CLINIC, PLLC",IFLAL,6640 103rd Street                                                                   JACKSONVILLE,FL32210     US763 E. Dorchester Drive,,
"EREIGN LEGAL JUSTICE, LLC",IFLAL,1930 HARRISON STREET                      203                                       HOLLYWOOD,FL33020       1930 HARRISON STREET,,203
"ERT BRIAN JUSTICE, ARNP, P.A.",IDOMP,4763 MELISSA COVE                                                                   CRESTVIEW,FL32539       4763 MELISSA COVE,,
"ERT R. HAGAMAN & ASSOCIATES, TRIAL LAWYERS & COUNSELORS AT LAW, CHARTERED",IDOMP,909 Vistana Circle                                                                  NAPLES,FL34119     US909 Vistana Circle,,
"ERTY & JUSTICE LEGAL, P.A.",ADOMP,4699 N STATE ROAD 7                       SUITE A1                                  FT. LAUDERDALE,FL33319     US4699 N STATE ROAD 7,,SUITE A1
"ERX MEDICAL MALPRACTICE, PLLC",AFLAL,5230 HARBORSIDE DR.                                                                 TAMPA,FL33615       5230 HARBORSIDE DR.,,
"ES INJURY LAW GROUP, PLLC",IFLAL,1806 N. FLAMINGO ROAD                     SUITE 280                                 PEMBROKE PINES,FL33028       1806 N. FLAMINGO ROAD,,SUITE 280
"ES INJURY LAW, PLLC",IFLAL,3860 WEST COMMERCIAL BLVD.                                                          FORT LAUDERDALE,FL33309     UN13846 NW 21ST STREET,,
ES JUSTICE FIRM PLLC,IFLAL,1925 E 6th Ave                                                                      Tampa,FL33605     US7617 W Courtney Campbell,CSWY,
"F. JUSTICE, P.A.",ADOMP,8551 W. SUNRISE BLVD.                     SUITE 300                                 PLANTATION,FL33322       5750 SW 8th Ct.,,
FESSIONAL INJURY PARALEGALS LLC,IFLAL,6100 12TH AVE S                                                                     GULFPORT,FL33707     US6100 12TH AVE S,,
"FESSIONAL LEGAL ASSISTANTS AND LITIGATION SUPPORT GROUP, INC.",IDOMP,% PATTY GRATZ                             825 S BAYSHORE DR #1650                   MIAMI,FL33131       % PATTY GRATZ,,825 S BAYSHO
"FLA. LITIGATION PARALEGAL SERVICES, LLC",AFLAL,2000 SW 6th Avenue                                                                  BOYNTON BEACH,FL33426     US2000 SW 6th Avenue,,
"FLORIDA ACCIDENT AND INJURY CENTERS, P.A.",IDOMP,8480 BLIND PASS RD.                                                                 ST. PETERSBURG B,EACH        FL33706       8480 BLIND PASS RD.,,
FLORIDA ACCIDENT ATTORNEY PLLC,AFLAL,12350 SW 132 CT                           112                                       MIAMI,FL33186       12350 SW 132 CT,,112
"FLORIDA ACCIDENT LAW GROUP, L.L.C.",IFLAL,306 N. RHODES AVE. SUITE 112                                                        SARASOTA,FL34237       306 N. RHODES AVE. SUITE,112,
"FLORIDA PERSONAL INJURY LAW CENTER, LLC",AFLAL,4151 Hollywood Blvd                                                                 Hollywood,FL33021     US4151 Hollywood Blvd,,
"FLORIDA PERSONAL INJURY, P.A.",ADOMP,8722 JASMINE CT.                                                                    CAPE CANAVERAL,FL32920     USP.O. BOX 1002,,
"FLORIDA PROBATE TRIAL LAWYERS, PA",IDOMP,2245 MCGREGOR BLVD                                                                  FT. MYERS,FL33901     US2245 MCGREGOR BLVD,,
"FLORIDA TRIAL FIRM, PLLC",IFLAL,412 E Madison St                          Suite 903                                 Tampa,FL33602     US412 E Madison St,,Suite 903
FLORIDA TRIAL LAW GROUP LLC,AFLAL,407 N. HOWARD AVE.                        100                                       TAMPA,FL33606       407 N. Howard Ave,,
"FMAN & LYND-PERSONAL INJURY AND ACCIDENT ATTORNEYS, PLLC",AFLAL,200 E ROBINSON ST                                                                   ORLANDO,FL32801     US200 E ROBINSON ST,,
"G ACCIDENT & EMERGENCY MEDICINE SPECIALISTS, P.A.",ADOMP,120 PONTE VEDRA EAST BOULEVARD                                                      PONTE VEDRA BEAC,H           FL32082       120 PONTE VEDRA EAST BOU,LEVARD,
"G PERSONAL INJURY GROUP, P.A.",ADOMP,326 N. BROAD STREET                       SUITE 101                                 JACKSONVILLE,FL32202     US326 N. BROAD STREET,,SUITE 101
"GADO TRIAL ATTORNEYS, P.A.",ADOMP,10631 N. KENDALL DRIVE                    SUITE 130                                 MIAMI,FL33176       10631 N. KENDALL DRIVE,,SUITE 130
GAL LAW: FLORIDA ACCIDENT LAWYERS AND PERSONAL INJURY ATTORNEYS PLLC,AFLAL,638 BROADWAY AVE                          SUITE #200                                ORLANDO,FL32803     US638 BROADWAY AVE,,SUITE #200
"GAN & MORGAN BUSINESS TRIAL GROUP, PLLC",AFLAL,"20 N. ORANGE AVENUE, SUITE 1600                                                     ORLANDO","FL32801     US20 N. ORANGE AVENUE, SUI",TE 1600,
"GAN & MORGAN CLASSACTION LITIGATION GROUP, PLLC",AFLAL,"20 N. ORANGE AVENUE, SUITE 1600                                                     ORLANDO","FL32801     US20 N. ORANGE AVENUE, SUI",TE 1600,
"GAN & MORGAN COMPLEX LITIGATION GROUP, PLLC",AFLAL,"20 N. ORANGE AVENUE, SUITE 1600                                                     ORLANDO","FL32801     US20 N. ORANGE AVENUE, SUI",TE 1600,
"GAN & MORGAN COMPLEX LITIGATION SERVICES, P.A.",ADOMP,"20 N. ORANGE AVE., STE. 1600                                                        ORLANDO","FL32801     US20 N. ORANGE AVE., STE.",1600,
"GAN & MORGAN CONSUMER PROTECTION LITIGATION GROUP, PLLC",AFLAL,"20 N. ORANGE AVENUE, SUITE 1600                                                     ORLANDO","FL32801     US20 N. ORANGE AVENUE, SUI",TE 1600,
"GAN & MORGAN MASS TORT LITIGATION GROUP, PLLC",AFLAL,"20 N. ORANGE AVENUE, SUITE 1600                                                     ORLANDO","FL32801     US20 N. ORANGE AVENUE, SUI",TE 1600,
"GAN & MORGAN MESOTHELIOMA LITIGATION GROUP, PLLC",AFLAL,"20 N. ORANGE AVENUE, SUITE 1600                                                     ORLANDO","FL32801     US20 N. ORANGE AVENUE, SUI",TE 1600,
"GAN & MORGAN QUI TAM LITIGATION GROUP, PLLC",AFLAL,20 N. ORANGE AVE STE 1600                                                           ORLANDO,FL32801     US20 N. ORANGE AVE STE 160,0,
"GAN TRIAL LAW, P.A.",ADOMP,906 Poinciana Lane                                                                  WINTER PARK,FL32789     US906 Poinciana Lane,,
"GES INJURY LAW, P.A.",ADOMP,836 Highland Avenue                                                                 Orlando,FL32803     US30301 Gidran Terrace,,
GLER INJURY LAW PLLC,AFLAL,5949 MACY AVENUE                                                                    JACKSONVILLE,FL32211     US5949 MACY AVENUE,,
"HAM INJURY FIRM, P.A.",ADOMP,110 SE 6th Street                         Suite 1743                                Fort Lauderdale,FL33301     US110 SE 6th Street,,Suite 1743
"HAT INJURY LAW, P.A.",ADOMP,1200 RIVERPLACE BLVD.                     SUITE 902                                 JACKSOVILLE,FL32207     US1200 RIVERPLACE BLVD.,,SUITE 902
"HOLLIDAY TRIAL FIRM, PLLC",AFLAL,15316 CORTEZ BLVD                                                                   BROOKSVILLE,FL34613     US15316 CORTEZ BLVD,,
HOLSON INJURY LAW PA,IDOMP,711 NORTH ORLANDO AVENUE                                                            MAITLAND,FL32751     US711 NORTH ORLANDO AVENUE,,
"HOSPITAL INJURY LAW FIRM, PLLC",IFLAL,2260 FIFTH AVENUE SOUTH                   SUITE 2                                   ST. PETERSBURG,FL33712     US2260 FIFTH AVENUE SOUTH,,SUITE 2
"IA TRIAL LAWYERS, PA",IDOMP,92 Seabreeze Circle                                                                 Seacrest,FL32461     US92 Seabreeze Circle,,
"IABLE LITIGATION SOLUTIONS, P.A.",IDOMP,5324 TWIN CREEKS DRIVE                                                              VALRICO,FL33598     US5324 TWIN CREEKS DRIVE,,
"IAL JUSTICE LAW COLLECTIVE, PL",AFLAL,974 HOWARD AVE.                                                                     DUNEDIN,FL34698     US974 HOWARD AVE.,,
"IAL JUSTICE LEGAL RESOURCES, LLC",IFLAL,8845 HARLAND AVENUE                                                                 ORLANDO,FL32836     USPO BOX 1054,,
"IAN RIVER INJURY & REHAB CENTER, P.A.",IDOMP,706 SOUTH 6TH STREET                                                                FORT PIERCE,FL34950       706 SOUTH 6TH STREET,,
"IAN TRIAL LAW, P.A.",ADOMP,2805 TROPICAL AVE                                                                   VERO BEACH,FL32960     US2805 TROPICAL AVE,,
"ICAL & INJURY CENTERS OF FLORIDA, P.C.",IFORP,4809 N. Armenia Ave                       Suite 210                                 Tampa,FL33603     US3060 Peachtree St,,
ICAL JUSTICE LEGAL INSURANCE COMPANY,IDOMP,ONE STAUNTON CT                                                                     GREENSBORO,NC27410       ONE STAUNTON CT,,
"ICAL MALPRACTICE LAW CENTER, P.A.",IDOMP,5499 N. FEDERAL HIGHWAY                   SUITE J                                   BOCA RATON,FL33487     UN5499 N. FEDERAL HIGHWAY,,SUITE J
"ICAL-LEGAL LITIGATION CONSULTANTS, INC.",IDOMP,250 BIRD RD                               SUITE 302                                 CORAL GABLES,FL33146       250 BIRD RD,,SUITE 302
"ICK LITIGATION, P.A.",IDOMP,313 JOHNSON STREET                                                                  TALLAHASSEE,FL32303     US313 JOHNSON STREET,,
"ID FRANK INJURY LAW, P.A.",IDOMP,1584 METROPOLITAN BLVD                    STE 102                                   TALLAHASSEE,FL32308       1584 METROPOLITAN BLVD,,STE 102
"ID HUGHES HARRIS, TRIAL LAWYER, PL",IFLAL,"8670 WESLEYAN DR., STE. 314                                                         FT MYERS","FL33919       8670 WESLEYAN DR., STE.",314,
"IDENT & INJURY ATTORNEY HOTLINE, INC.",IDOMP,11565 MIZZON DR.                          SUITE 803                                 WINDERMERE,FL34786       11565 MIZZON DR.,,SUITE 803
"IDENT & INJURY ATTORNEYS OF CALDWELL & VILES, P.A.",IDOMP,4415 METRO PARKWAY                        SUITE 200                                 FORT MYERS,FL33916       4415 METRO PARKWAY,,SUITE 200
"IDENT & INJURY LAWYERS, P.A.",IDOMP,701 BRICKELL KEY BOULEVARD                CU-1                                      MIAMI,FL33131       701 BRICKELL KEY BOULEVA,RD,CU-1
"IDENT & PERSONAL INJURY LAW CENTER, P.A.",ADOMP,"3800 S. OCEAN DRIVE, #222                                                           HOLLYWOOD","FL33019     US3800 S. OCEAN DRIVE, #22",2,
IDENT AND INJURY LEGAL CENTER PROFESSIONAL ASSOCIATION,IDOMP,7765 N.W. 19TH COURT                                                                PEMBROKE PINES,FL33024     US7765 N.W. 19TH COURT,,
"IDENT INJURY LAW, L.L.C.",IFLAL,28 W. FLAGLER ST. #1200-C                                                           MIAMI,FL33130     UN28 W. FLAGLER ST. #1200-,C,
"IDENT INJURY LEGAL CENTER, P.A.",IDOMP,3711 W. AZEELE ST.                                                                  TAMPA,FL33609       3711 W. AZEELE ST.,,
"IDENT INJURY LEGAL TEAM, P.A.",IDOMP,1911 NE 164TH ST.                                                                   N. MIAMI BCH,FL33162       1911 NE 164TH ST.,,
IDENT PLUS INJURY CARE ALTAMONTE PLLC,IFLAL,1367 Beville Rd                                                                     Daytona Beach,FL32119     US6903 VINTAGE LANE,,
"IDENT TRIAL ATTORNEYS OF CENTRAL FLORIDA, INC.",IDOMP,"% JACK F. DURIE, JR.                      200 E. ROBINSON ST, #1250                 ORLANDO","FL32801       % JACK F. DURIE, JR.",,200 E. ROBIN
"IDENT TRIAL ATTORNEYS OF SOUTH FLORIDA, INC.",IDOMP,"% JACK F. DURIE, JR.                      200 E. ROBINSON ST, STE 1250              ORLANDO","FL32801       % JACK F. DURIE, JR.",,200 E. ROBIN
"IDENT TRIAL ATTORNEYS, INC.",IDOMP,"% JACK F. DURIE, JR.                      200 E. ROBINSON ST, #1250                 ORLANDO","FL32801       % JACK F. DURIE, JR.",,200 E. ROBIN
"IDENTAL INJURY LAW FIRM, P.A.",IDOMP,6474 FIRST AVENUE NORTH                                                             ST. PETERSBURG,FL33710       6474 FIRST AVENUE NORTH,,
"IETY OF WOMEN TRIAL LAWYERS, LLC",AFLAL,513 DRACENA WAY                                                                     GULF BREEZE,FL32561     US513 DRACENA WAY,,
"IGRANT JUSTICE CENTER, P.A.",IDOMP,200 S. BISCAYNE BLVD.                     SUITE # 4650                              MIAMI,FL33131     US200 S. BISCAYNE BLVD.,,SUITE # 4650
IGRATION AND JUSTICE LAW FIRM LLC,IFLAL,790 NW 107TH AVENUE                       300                                       MIAMI,FL33172       790 NW 107TH AVENUE,,300
"IL JUSTICE FIRM, P.A.",ADOMP,221 W Hallandale Beach Blvd #207                                                    HALLANDALE,FL33009     US221 W Hallandale Beach B,lvd #207,
"IL JUSTICE LAW CENTER, P.A.",IDOMP,2851 NE 183RD STREET                      APT #806                                  AVENTURA,FL33160     US2851 NE 183RD STREET,,APT #806
"IL JUSTICE LAW CENTER, PLLC",IFLAL,2101 VISTA PARKWAY                        SUITE 4034                                WEST PALM BEACH,FL33411       2101 VISTA PARKWAY,,SUITE 4034
"IL JUSTICE LAW FIRM, P.A.",IDOMP,2875 NE 191 Street                        suite 500                                 AVENTURA,FL33180     US2875 NE 191 Street,,suite 500
"IL TRIAL PRACTICE, P.A.",ADOMP,152 NE 167TH STREET                       300                                       NORTH MIAMI BEAC,H           FL33162     US152 NE 167TH STREET,,300
"ILA INJURY ATTORNEYS, PLLC",IFLAL,"2170 W STATE RD 434, SUITE 450                                                      LONGWOOD","FL32779     UN2170 W STATE RD 434, SUI",TE 450,
IN LITIGATION PLLC,AFLAL,6100 Hollywood Blvd.                                                                Hollywood,FL33024     US6100 Hollywood Blvd.,,
"IN SPARKMAN INJURY LAW, LLC",AFLAL,11213 LAUREL BROOK CT.                                                              RIVERVIEW,FL33569       11213 LAUREL BROOK CT.,,
"INA LAW FIRM, P.A. - TRIAL ATTORNEYS",ADOMP,325 SOUTH BOULEVARD                                                                 TAMPA,FL33606     US325 SOUTH BOULEVARD,,
"INER TRIAL LAW, P.A.",IDOMP,8004 NW 154 Street                                                                  MIAMI Lakes,FL33016     US8004 NW 154 Street,,
"INESS LAW AND LITIGATION, P.A.",IDOMP,4300 BISCAYNE BLVD.                                                                 MIAMI,FL33137       PO BOX 531097,,
"INISHED VALUE CLAIMS LAW FIRM, P.A.",ADOMP,9862 PALMA VISTA WAY                                                                BOCA RATON,FL33428     US9862 PALMA VISTA WAY,,
"INJURY ATTORNEYS, P.L.",IFLAL,2245 MCGREGOR BOULEVARD                                                             FORT MYERS,FL33901       2245 MCGREGOR BOULEVARD,,
"INJURY FIRM, P.A.",ADOMP,970 SW 17th Street                                                                  Boca raton,FL33486     US970 SW 17th Street,,
"INJURY LAW CENTER OF ROBERT SHAPIRO, P.A.",IDOMP,15291 NW 60 AVENUE                        SUITE 100                                 MIAMI LAKES,FL33014       P.O. BOX 141106,,
INJURY LAW CENTER P.A.,IDOMP,"ABRAHAMSON & UITERWYK, P.A.               3040 GULF TO BAY BLVD                     CLEARWATER","FL34619       ABRAHAMSON & UITERWYK, P",.A.,3040 GULF TO
INJURY LAW CENTER P.A.,IDOMP,4826 N. FEDERAL HWY                                                                 FT. LAUDERDALE,FL33308-4606  4826 N. FEDERAL HWY,,
"INJURY LAW FIRM, PA",ADOMP,301 W Atlantic Ave                                                                  Delray Beach,FL33444     US6357 BRANCHWOOD DRIVE,,
"INJURY LAW FIRM, PLLC",AFLAL,3903 NORTHDALE BLVD                       SUITE 100E                                TAMPA,FL33624     US3903 NORTHDALE BLVD,,SUITE 100E
"INJURY LAW GROUP, P.A.",ADOMP,7480 SW 40TH STREET                       STE #660                                  MIAMI,FL33155     US7480 SW 40TH STREET,,STE #660
"INJURY LAW OFFICES OF JOHN T. KENNEDY, P.A.",IDOMP,477 RIVERSIDE DRIVE                                                                 STUART,FL34994       477 RIVERSIDE DRIVE,,
INJURY LAW PA,IDOMP,610 E ZACK STREET                         SUITE 110-3060                            TAMPA,FL33602       610 E ZACK STREET,,SUITE 110-30
INJURY LAW PLLC,AFLAL,2030 S DOUGLAS RD                         STE 214                                   CORAL GABLES,FL33134     UN2030 S DOUGLAS RD,,STE 214
INJURY LAW PLLC,IFLAL,"8725 NW 18TH TERR, STE. 219                                                         DORAL",FL33172     USPO BOX 161005-ARIAS,,
"INJURY LAW TEAM, LLC",AFLAL,621 NW 53rd Street                        Suite 125                                 Boca Raton,FL33487     US621 NW 53rd Street,,Suite 125
"INJURY LAW, P.A.",IDOMP,520 2nd Ave. S.                                                                     Saint Petersburg,FL33701     US520 2nd Ave. S.,,
"INJURY LAW, PLLC",AFLAL,1 EAST BROWARD BLVD.                      SUITE 700                                 FORT LAUDERDALE,FL33301     US1 East Broward Blvd.,,Suite 700
INJURY LAWYERS LLC,IFLAL,4419 PARK BLVD                                                                      PINELLAS PARK,FL33781     US4419 PARK BLVD,,
"INJURY TEAM, P.A.",IDOMP,390 N. ORANGE AVENUE                      23RD FLOOR                                ORLANDO,FL32801     US390 N. ORANGE AVENUE,,23RD FLOOR
"INO INJURY LAW, P.A.",ADOMP,19251 NW 12TH MANOR                                                                 PEMBROKE PINES,FL33029     US19251 NW 12TH MANOR,,
"INSKY NEIMAND TRIAL FIRM, P.A.",ADOMP,1835 NE MIAMI GARDENS DR                  STE 151                                   NORTH MIAMI BEAC,H           FL33179     US1835 NE MIAMI GARDENS DR,,STE 151
"INSON TRIAL LAWYERS, P.A.",ADOMP,"11555 HERON BAY BLVD , SUITE 200                                                    CORAL SPRINGS","FL33076     US11555 HERON BAY BLVD, SU",ITE 200,
IONAL BRAIN INJURY LAWYERS LLC,IFLAL,123 SAN CHEZ DR                                                                     SAINT PETERSBURG,FL33715     US123 SAN CHEZ DR,,
"IONAL INJURY LAW, PLLC",AFLAL,1500 NW 89TH CT                           STE 119                                   DORAL,FL33172       1500 NW 89TH CT,,STE 119
"IONAL INSTITUTE FOR LEGAL MALPRACTICE, INC.",IDOMP,2255 GLADES RD #118 E.                                                              BOCA RATON,FL33431       2255 GLADES RD #118 E.,,
"IONAL LITIGATION LAW GROUP, LLC",IFORL,2401 NW 23RD STREET STE 42                                                          OKLAHOMA CITY,OK73107     US2401 NW 23RD STREET STE,42,
"IONAL MEDICO-LEGAL MALPRACTICE CONSULTANTS, INC.",IDOMP,% SHELDON P. DAVIS                        315 MADISON STREET SUITE 720              TAMPA,FL33602       % SHELDON P. DAVIS,,315 MADISON
IONWIDE INJURY LAW PLLC,IFLAL,5401 S. KIRKMAN ROAD                      725                                       ORLANDO,FL32819     US5401 S. KIRKMAN ROAD,,725
"IOR JUSTICE LAW FIRM, LLC",AFORL,7700 CONGRESS AVE.                        SUITE 3216                                BOCA RATON,FL33487       7700 CONGRESS AVE.,,SUITE 3216
"IOR JUSTICE LAW FIRM, PLLC",IFLAL,"7700 CONGRESS AVE, SUITE 3216                                                       BOCA RATON","FL33487     US7700 CONGRESS AVE, SUITE",3216,
IR INJURY & CRIMINAL DEFENSE LAW PLLC,AFLAL,3530 1ST AVE. NORTH SUITE 105                                                       SAINT PETERSBURG,FL33713-8436US3530 1ST AVE. NORTH SUIT,E 105,
"IS TRIAL LAW, PLLC",AFLAL,6586 HYPOLUXO ROAD #311                                                             LAKE WORTH,FL33467       6586 HYPOLUXO ROAD #311,,
"ITIME INJURY LAW CENTER, P.A.",IDOMP,1939 Tyler Street                                                                   HOLLYWOOD,FL33020     US1939 Tyler Street,,
IZENS FOR JUSTICE IN THE LEGAL SYSTEM INC.,IDOMNP,7810 S.W. 54TH AVE.                       P.O.BOX 013236                            MIAMI,FL33101-3236  7810 S.W. 54TH AVE.,,P.O.BOX 0132
"JILLO CIVIL LITIGATION, P.A.",ADOMP,9800 FOURTH STREET NORTH                  108                                       ST. PETERSBURG,FL33702       3903 W. SEVILLA STREET,,
"JUSTICE ADVOCACY GROUP, P.A.",IDOMP,"80 SOUTH WEST 8TH STREET                  2,000                                     MIAMI",FL33130       80 SOUTH WEST 8TH STREET,,"2,000"
"JUSTICE CLINIC, P.A.: A LAW FIRM",IDOMP,P.O. BOX 873                                                                        GAINESVILLE,FL32602       P.O. BOX 873,,
"JUSTICE GROUP, PLLC",AFLAL,1825 NW CORPORATE BLVD                    SUITE 110                                 BOCA RATON,FL33431     UN1825 NW CORPORATE BLVD,,SUITE 110
"JUSTICE LAW FIRM, OFFICES OF JOSEPH F. JUSTICE P.A.",IDOMP,3632 LAND O LAKES BLVD                    Suite 105                                 LAND O' LAKES,FL34639     US3632 Land O' Lakes Blvd,,Suite 105
"JUSTICE LAW FIRM, P.A.",IDOMP,4735 SUNBEAM ROAD                                                                   JACKSONVILLE,FL32257       4735 SUNBEAM ROAD,,
"JUSTICE LAW TEAM, PA",IDOMP,805 EXECUTIVE CENTER DRIVE WEST           SUITE 105                                 ST PETERSBURG,FL33702     USPO BOX 15157,,
"JUSTICE LEAGUE OF FLORIDA, PLLC",AFLAL,100 LINCOLN RD                            #1205                                     MIAMI BEACH,FL33139       100 LINCOLN RD,,#1205
"JUSTICE LEGAL GROUP LITIGATION FIRM, P. A.",IDOMP,319 CLEMATIS STREET                       209                                       WEST PALM BEACH,FL33401     US319 CLEMATIS STREET,,209
"K COUNTY TRIAL LAWYERS ASSOCIATION, INC.",ADOMNP,415 East Main Street                                                                Bartow,FL33830     USPost Office Box 1061,,
"K INJURY LEGAL CENTER, INC.",IDOMP,299 ALHAMBRA CIRCLE                       SUITE 316                                 CORAL GABLES,FL33134       299 ALHAMBRA CIRCLE,,SUITE 316
"KE TRIAL LAW, P.A.",ADOMP,401 E. JACKSON STREET                     SUITE 2340                                TAMPA,FL33602     US401 E. JACKSON STREET,,SUITE 2340
"KET AND ACCIDENT LAWYERS, PLLC",IFLAL,633 SOUTH ANDREWS AVE                     SUITE  # 101                              FORT. LAUDERDALE,FL33301     US633 SOUTH ANDREWS AVE,,SUITE  # 101
KEYLOPEZ GOVERNMENT LAW OF JUSTICE INC,IDOMP,7510 MARYLAND AVENUE                                                                HUDSON,FL34667       7510 MARYLAND AVENUE,,
KEYLOPEZ GOVERNMENT LAW OF JUSTICE INC.,IDOMP,7510 MARYLAND AVE UNIT 28                                                           HUDSON,FL34667     US7510 MARYLAND AVE UNIT 6,,
"KIN LITIGATION GROUP, P.A.",IDOMP,6720 Atlantic Blvd.                                                                 Jacksonville,FL32211     USPO BOX 477,,
"KINS INJURY GROUP, P.A.",ADOMP,302 S. SECOND ST.                                                                   FT. PIERCE,FL34950       2931 North Indian River,Drive,
"KLEINER LEGAL AND LITIGATION SUPPORT SERVICES, INC.",IDOMP,905 SW 9 TERRACE                                                                    FT LAUDERDALE,FL33315       905 SW 9 TERRACE,,
"KLEY, SEACORD & JUSTICE, P.A.",ADOMP,111 N Orange Ave                                                                    ORLANDO,FL32801     USP.O. BOX 4922,,
"KMAN INJURY LAW, PLLC",AFLAL,"633 S Andrews Ave, Ste 401                                                          FORT LAUDERDALE","FL33301     US633 S Andrews Ave, Ste 4",01,
KOVICH INJURY LAW FIRM LLC,IFLAL,901 PONCE DE LEON BLVD                    604                                       CORAL GABLES,FL33134     US901 PONCE DE LEON BLVD,,604
L TRIAL GROUP PLLC,AFLAL,1560 N. ORANGE AVE                        ST. 300                                   WINTER PARK,FL32789     US1560 N. ORANGE AVE,,ST. 300
"L TRIAL LAWYERS, P.A.",IDOMP,2665 SOUTH BAYSHORE DRIVE                 PENTHOUSE ONE                             MIAMI,FL33133     UN2665 SOUTH BAYSHORE DRIV,E,PENTHOUSE ON
"LA COSTA INJURY LAW, P.A.",IDOMP,46 NORTH WASHINGTON BLVD #13                                                        SARASOTA,FL34236       46 NORTH WASHINGTON BLVD,#13,
LAW JUSTICE INC,ADOMNP,6810 LYONS TECHNOLOGY CIR                 STE 165                                   COCONUT CREEK,FL33073     US6810 LYONS TECHNOLOGY CI,R,STE 165
"LAW OFFICES OF JOSEPH F. JUSTICE, LLC",IFLAL,1190 WENDY CT                             SUITE 2                                   SPRING HILL,FL34607     US1190 WENDY CT,,SUITE 2
"LAWYERS ACCIDENT GROUP, P.A.",IDOMP,3157 JOHNSON ST.                                                                    HOLLYWOOD,FL33021       3157 JOHNSON ST.,,
"LD JUSTICE & LEGAL CENTERS, INC.",ADOMNP,1645 Sun City Center Plaza                                                          Sun City Center,FL33573     USPO Box 5571,,
"LD JUSTICE & LEGAL CENTERS, INC.",IFORNP,235 APOLLO BEACH BLVD.                    SUITE:431                                 APOLLO BEACH,FL33572     US235 APOLLO BEACH BLVD.,,SUITE:431
"LEGAL JUSTICE LAW FIRM, P.A.",ADOMP,1238 E. CONCORD STREET                                                              ORLANDO,FL32803       1238 E. CONCORD STREET,,
"LER TAMAYO AND GRAHAM INJURY LAWYERS, PLLC",IFLAL,11093 NW 138TH STREET                     SUITE 112                                 HIALEAH GARDENS,FL33018       11093 NW 138TH STREET,,SUITE 112
"LEY & UUSTAL TRIAL ATTORNEYS, PLLC",IFLAL,500 NORTH FEDERAL HIGHWAY                 SUITE 200                                 FORT LAUDERDALE,FL33301     US500 NORTH FEDERAL HIGHWA,Y,SUITE 200
"LEY DOLMAN PERSONAL INJURY LAWYERS, P.A.",IDOMP,20807 BISCAYNE BOULEVARD                  100                                       AVENTURA,FL33180       20807 BISCAYNE BOULEVARD,,100
"LEY TRIAL LAW, PLLC",IFLAL,401 E LAS OLAS BLVD.                      1400                                      FORT LAUDERDALE,FL33301     US401 E LAS OLAS BLVD.,,1400
"LIAMS TRIAL GROUP, P.A.",ADOMP,1820 West Colonial Drive                                                            Orlando,FL32804     US1820 West Colonial Drive,,
"LIGHT: RULE OF LAW, ACCESS TO JUSTICE, ADVOCACY (COLLECTIVE) LLC",AFLAL,2291 AMERICUS BLVD W                                                                Clearwater,FL33763     US555 10th Street,,
"LIGHT: RULE OF LAW, ACCESS TO JUSTICE, ADVOCACY, INC.",ADOMNP,2291 Americus Blvd W                                                                Clearwater,FL33763     US555 10th Street,,
LINI INJURY LAW P.A.,IDOMP,3690 DAVIE BLVD                                                                     FORT LAUDERDALE,FL33312     US3690 DAVIE BLVD,,
"LITIGATION CENTER , II, P.A.",IDOMP,1850 CORAL WY                                                                       MIAMI,FL33145       1850 CORAL WY,,
LITIGATION CENTER P.A.,IDOMP,2828 Coral Way                            540                                       MIAMI,FL33145     US2828 Coral Way,,540
"LITIGATION CENTER, P.A.",IDOMP,3191 CORAL WAY                            SUITE 402                                 MIAMI,FL33145     US3191 CORAL WAY,,SUITE 402
"LITIGATION CONSULTING, P.A.",IDOMP,14140 Corrigan Avenue                                                               ORLANDO,FL32827     US14140 Corrigan Avenue,,
"LITIGATION GROUP, P.A.",IDOMP,4801 S UNIVERSITY DR                      270                                       DAVIE,FL33328       4801 S UNIVERSITY DR,,270
"LITIGATION GROUP, P.A.",ADOMP,112 Bartram Oaks Walk                     Suite 104                                 Saint Johns,FL32259     USPo Box 600519,,
LITIGATION SUPPORT SERVICES P.A.,IDOMP,"265 EAST MARION AVENUE,                   SUITE 115                                 PUNTA GORDA","FL33950     US265 EAST MARION AVENUE,",,SUITE 115
"LIVAN INJURY LAW, LLC",IFLAL,96512 GRANDE OAKS LN.                                                               FERNANDINA BEACH,FL32034       96512 GRANDE OAKS LN.,,
"LLES INJURY LAW, LLC",AFLAL,631 US HWY 1                              SUITE 203                                 North Palm Beach,FL33408     US631US HWY 1,,SUITE 203
LLIPS INJURY LAW PA,IDOMP,9326 ARBORWOOD CIRCLE                                                               DAVIE,FL33328       9326 ARBORWOOD CIRCLE,,
"LLMAN INJURY LAW, PA",ADOMP,7681 LAKE WORTH ROAD                                                                LAKE WORTH,FL33467     US7681 LAKE WORTH ROAD,,
"LLYN S. JUSTICE, CPA, P.A.",ADOMP,2130 47th Terrace                                                                   VERO BEACH,FL32966     US2130 47th Terrace,,
"LOR, WINSTON & JUSTICE, P.A.",IDOMP,2211 DAVIE BOULEVARD                                                                FORT LAUDERDALE,FL33312       2211 DAVIE BOULEVARD,,
"LOYMENT, INJURY & AVIATION LAW CENTER, P.A.",IDOMP,2727 ULMERTON ROAD                        SUITE 210                                 CLEARWATER,FL33762       2727 ULMERTON ROAD,,SUITE 210
LY INJURY LAW PLLC,AFLAL,2454 N. McMullen Booth road               Ste 700                                   Clearwater,FL33759     US2454 N. McMullen Booth r,oad,Ste 700
"M BEACH COUNTY BOARD CERTIFIED CIVIL TRIAL LAWYERS, INC.",IDOMP,1801 AUSTRALIAN AVENUE SOUTH              SUITE 200                                 WEST PALM BEACH,FL33409       1801 AUSTRALIAN AVENUE S,OUTH,SUITE 200
"M BEACH COUNTY TRIAL LAWYERS ASSOCIATION, INC.",IDOMP,"% JOSEPH M. CONSIDINE                     1655 PALM BEACH LAKES BLVD., SUITE 816    W. PALM BEACH",FL33401       % JOSEPH M. CONSIDINE,,1655 PALM BE
"M CITY LITIGATION GROUP, PLLC",AFLAL,4872 SW BIMINI CIR N                                                                PALM CITY,FL34990     US4872 SW BIMINI CIR N,,
"M COAST INJURY LAW, LLC",IFLAL,"389 PALM COAST PARKWAY, SW                SUITE 4                                   PALM COAST","FL32137       389 PALM COAST PARKWAY,",SW,SUITE 4
M INJURY LAW FIRM PROFESSIONAL ASSOCIATION,IDOMP,1505 S. TAMIAMI TR.                       SUITE 405                                 VENICE,FL34292       PO BOX 3420,,
MAN INJURY LAW PLLC,AFLAL,5700 Stirling Road                                                                  Hollywood,FL33021     US5700 Stirling Road,,
"MAS H. JUSTICE III, P.A.",ADOMP,3220 Chelsea Street                                                                 Orlando,FL32803     US3220 Chelsea Street,,
"MAT WHITT INJURY LAW, PLLC",AFLAL,539 GREELY STREET                                                                   ORLANDO,FL32804       539 GREELY STREET,,
"ME JUSTICE, P.A.",IDOMP,7241 DELAINEY COURT #7                                                              SARASOTA,FL34240     US13014 N DALE MABRY HWY #,329,
"MEL LITIGATION AND CONSULTING, PLLC",IFLAL,15500 ROOSEVELT BOULEVARD                 SUITE 305                                 CLEARWATER,FL33760       P.O. BOX 20876,,
"MEL TRIAL LAW, LLC",IFLAL,721 FIRST AVENUE NORTH                                                              SAINT PETERSBURG,FL33701       721 FIRST AVENUE NORTH,,
"MENTINE CONDE ACCIDENT INJURY LAWYER, LLC",IFLAL,6609 RIDGE ROAD                           2                                         PORT RICHEY,FL34668     USPO BOX 1174,,
"MERMAN & FRACHTMAN, P.A., PERSONAL INJURY ATTORNEYS",ADOMP,6991 NORTH STATE RD 7                     2ND FLOOR                                 PARKLAND,FL33073     US6991 NORTH STATE RD 7,,2ND FLOOR
"MI ACCIDENT ATTORNEYS, LLC",IFLAL,2601 SOUTH BAYSHORE DRIVE                 SUITE #850                                COCONUT GROVE,FL33133       2601 SOUTH BAYSHORE DRIV,E,SUITE #850
MI BEACH ACCIDENT ATTORNEYS LLC,IFLAL,777 WEST 41ST STREET                      401                                       MIAMI BEACH,FL33140       2101 W COMMERCIAL BLVD,,1500
MI CAR ACCIDENT LAWYER LLC,IFLAL,12228 QUILTING LANE                                                                 BOCA RATON,FL33428       12228 QUILTING LANE,,
MI INJURY LAW OFFICE MIAMI DADE CORP,IDOMP,1804 SW 100TH AVE                                                                   MIAMI,FL33165     US1804 SW 100TH AVE,,
MI INJURY LAW P.A.C INC,IDOMP,932 SW 82 AVE STE B                                                                 MIAMI,FL33144       932 SW 82 AVE STE B,,
"MI INJURY LAW, P.A.",ADOMP,1500 NW 89TH CT                           SUITE 119                                 DORAL,FL33172     US1500 NW 89TH CT,,SUITE 119
"MI INJURY LAWYERS, P.A.",IDOMP,2390 SW 24TH TER                                                                    MIAMI,FL33145     US2390 SW 24TH TER,,
"MI-DADE TRIAL LAWYERS ASSOCIATION, INC",ADOMNP,2520 CORAL WAY                                                                      MIAMI,FL33145-3438US2520 CORAL WAY,,
"MIER ORTHOPEDIC & INJURY CENTER OF TAMPA, P.A.",IDOMP,1011 NORTH MACDILL AVENUE                                                           TAMPA,FL33607       1011 NORTH MACDILL AVENU,E,
MIERE FREELANCE PARALEGAL LITIGATION SUPPORT INC.,IDOMP,2020 NE 135 ST #711                                                                 N MIAMI,FL33181       2020 NE 135 ST #711,,
"MINAL JUSTICE AND LAW ENFORCEMENT TRAINING FACILITATORS, INC.",IDOMP,8122 LITTLE TEE LANE                                                                BROOKSVILLE,FL34613       8122 LITTLE TEE LANE,,
"MINAL JUSTICE CENTER OF SOUTH DADE, P.A.",IDOMP,1450 N KROME AVENUE                       STE 101-G                                 FLORIDA CITY,FL33034-2400  1450 N KROME AVENUE,,STE 101-G
"MINAL JUSTICE, LAW AND CAREER ACADEMY, INC.",IDOMNP,KATHLEEN HIGH SCHOOL                      2600 CRUTCHFIELD ROAD                     LAKELAND,FL33805       KATHLEEN HIGH SCHOOL,,2600 CRUTCHF
"MITT INJURY LAW, P.A.",IDOMP,1166 W. NEWPORT CENTER DRIVE              #309                                      DEERFIELD BEACH,FL33442       1166 W. NEWPORT CENTER D,RIVE,#309
"MO TRIAL ATTORNEYS, P.A.",IDOMP,4090 LAGUNA STREET                                                                  CORAL GABLES,FL33146       4090 LAGUNA STREET,,
"MO TRIAL ATTORNEYS, P.A.",ADOMP,1000 Brickell Ave                                                                   Miami,FL33131     US1000 Brickell Ave,,
"MONS INJURY LAW, P.A.",ADOMP,208 APOLLO BEACH BLVD                     STE 104                                   APOLLO BEACH,FL33572       208 APOLLO BEACH BLVD,,STE 104
"MORE & ASSOCIATES CHIROPRACTIC AND SPINAL INJURY CENTERS, P.A.",ADOMP,781 MAITLAND AVENUE                                                                 ALTAMONTE SPRING,S           FL32701       781 MAITLAND AVENUE,,
"MPIONS FOR JUSTICE LAW, LLC",AFLAL,402 E 7th Avenue                                                                    TAMPA,FL33602     US402 E 7th Avenue,,
"MPIONS FOR JUSTICE, P.A.",IDOMP,"4511 N. HIMES AVENUE, SUITE 200                                                     TAMPA","FL33614       4511 N. HIMES AVENUE, SU",ITE 200,
"MUNITY PAIN & INJURY CLINIC, P.A.",IDOMP,201 8TH ST. S                             #202                                      NAPLES,FL34102       201 8TH ST S. #202,,
N LEVY INJURY LAW PLLC,AFLAL,3211 SW 49 STREET                                                                   FORT LAUDERDALE,FL33312       3211 SW 49 STREET,,
"NAGAN & BODENHEIMER INJURY AND WRONGFUL DEATH LAW FIRM, P.L.L.C.",AFLAL,110 Merrick Way                           Suite 2C                                  Coral Gables,FL33134     US110 Merrick Way,,SUITE 2C
NAGAN INJURY LAW P.A.,ADOMP,261 N UNIVERSITY DR                       STE 500                                   PLANTATION,FL33324     US261 N UNIVERSITY DR,,STE 500
"NAGAN PERSONAL INJURY AND WRONGFULL DEATH LAW FIRM, P.A.",ADOMP,110 Merrick Way                           Suite 2C                                  Coral Gables,FL33134     US110 Merrick Way,,Suite 2C
"NAL INJURY & CONSULTANTS, P.A.",IDOMP,DR. S. CHRIS MERCURI                      4100 5TH STREET NORTH                     SAINT PETERSBURG,FL33703     US4100 5TH ST N,,
"NAL INJURY & SPORTS REHAB, P.A.",IDOMP,6401 66TH STREET N.                                                                 PINELLAS PARK,FL34665       6401 66TH STREET N.,,
"NANDEZ TRIAL ATTORNEYS, P.A.",IDOMP,1701 14th Street West                                                               BRADENTON,Fl34205     UN4705 26th Street West,,
NANDEZ TRIAL LAWYERS P.A.,IDOMP,8780-200 PERIMETER PARK COURT                                                       JACKSONVILLE,FL32216     US8780-200 PERIMETER PARK,COURT,
"NARD INJURY LAW, P.L.L.C.",IFLAL,2110 N 54TH AVE                                                                     HOLLYWOOD,FL33021       2110 N 54TH AVE,,
"NBERG GREEN INJURY LAW FIRM, LLC",IFLAL,2160 WEST ATLANTIC AVENUE                 2ND FLOOR                                 DELRAY BEACH,FL33445     US2160 WEST ATLANTIC AVENU,E,2ND FLOOR
NCIANA CHIROPRACTIC AND INJURY CENTER PLLC,AFLAL,827 CYPRESS PKWY                                                                    POINCIANA,FL34759       827 CYPRESS PKWY,,
"NCY INJURY LAW, LLC",AFLAL,8461 LAKE WORTH RD                        SUITE 113                                 LAKE WORTH,FL33467     US1825 NW CORPORATE BLVD,,SUITE 110
"NDLER TRIAL LAW, P.A.",ADOMP,7900 Peters Road                                                                    PLANTATION,FL33324     US7900 Peters Road,,
"NE P. JUSTICE, M.D., P.A.",ADOMP,1003 W COLLEGE BLVD SUITE 2                                                         NICEVILLE,FL32578       1003 W COLLEGE BLVD SUIT,E 2,
"NEIDER INJURY LAW, PLLC",AFLAL,7901 4TH ST N                             SUITE 300                                 ST. PETERSBURG,FL33702     US7901 4TH ST N,,SUITE 300
"NER TRIAL LAW, P.A.",IDOMP,1101 BRICKELL AVENUE                      1801N                                     MIAMI,FL33131     US1101 BRICKELL AVENUE,,1801NORTH
"NES NOLAN INJURY LAW, PLLC",AFLAL,2100 SE HILLMOOR DRIVE                    SUITE 106                                 PORT SAINT LUCIE,FL34952     US2100 SE HILLMOOR DRIVE,,SUITE 106
"NESVILLE AREA TRIAL LAWYERS ASSOCIATION, INC.",ADOMNP,2630-A NW 41ST                                                                      GAINESVILLE,FL32606     US2630-A NW 41ST,,
"NETT INJURY LAW, P.A.",ADOMP,416 SW 1ST AVE.                           415                                       FORT LAUDERDALE,FL33301       416 SW 1ST AVE.,,415
"NETWORK OF TRIAL LAW FIRMS, INC.",AFORNP,5602 Marquesas Circle                     Suite 205                                 Sarasota,FL34233     US5602 Marquesas Circle,,Suite 205
"NEWLIN INJURY ATTORNEYS AVIATION, LLC",AFLAL,7335 W SAND LAKE ROAD STE 300                                                       ORLANDO,FL32819       7335 W SAND LAKE ROAD ST,E 300,
NG JUSTICE LAW LLC,IFLAL,1400 COLONIAL BOULEVARD                                                             FORT MYERS,FL33907     US5822 Vandegrift Ave,,
"NHEISSER INJURY LAW, INC.",ADOMP,1834 MAIN STREET                                                                    SARASOTA,FL34236       1834 MAIN STREET,,
"NJURY & MALPRACTICE LAW FIRM, P.A.",IDOMP,248 1ST AVENUE NORTH                                                                SAINT PETERSBURG,FL33701       248 1ST AVENUE NORTH,,
NNARAH INJURY LAWYERS INCORPORATED,AFORP,2201 4th Ave N                                                                      BIRMINGHAM,AL35203     US2201 4th Ave N,,
"NOLDS INJURY LAW GROUP, LLC",IFLAL,1500 NW 62ND ST                           SUITE 101                                 FORT LAUDERDALE,FL33309       1500 NW 62ND ST,,SUITE 101
"NON LAND LITIGATION LOCAL LAW, PLLC",AFLAL,254 Stillwater Drive                                                                Oviedo,FL32765     USP.O. Box 782295,,
"NOSO ERICKSON TRIAL LAW, P.A.",ADOMP,1801 NE 123RD STREET                      314                                       NORTH MIAMI,FL33181     US1801 NE 123RD STREET,,314
NS CHIROPRACTIC AND INJURY P.A.,ADOMP,"2221 LEE ROAD,                            SUITE 20                                  WINTER PARK","FL32789     US2221 LEE ROAD,",,SUITE 20
NSACTION & LITIGATION COUNSEL CORP,IDOMP,19503 S. WEST VILLAGES PARKWAY            A1-104                                    NORTH PORT,FL34293     US19503 S. WEST VILLAGES P,ARKWAY,A1-104
"NSON LITIGATION GROUP, PLLC",AFLAL,2011 WEST CLEVELAND STREET                SUITE F                                   TAMPA,FL33606     US2011 WEST CLEVELAND STRE,ET,SUITE F
NSTEIN TRIAL FIRM PLLC,AFLAL,401 EAST LAS OLAS BLVD.                   SUITE 1400                                FORT LAUDERDALE,FL33301       401 EAST LAS OLAS BLVD.,,SUITE 1400
"O ACCIDENT ATTORNEY, PLLC",AFLAL,3765 Airport-Pulling Rd N                                                           NAPLES,FL34105     US8805 TAMIAMI TRAIL NORTH,,BOX 364
"O ACCIDENT ATTORNEYS, P.A.",IDOMP,2202 N. WEST SHORE BLVD.                  200                                       TAMPA,FL33607     US2202 N. WEST SHORE BLVD.,,200
O ACCIDENT LAW CENTER P.A.,IDOMP,5100 NORTH FEDERAL HWY                    SUITE                                     FORT LAUDERDALE,FL33308       5100 NORTH FEDERAL HWY,,SUITE
"O INJURY LAW FIRM, P.A.",IDOMP,3653 Cagney Drive                         Suite 203                                 TALLAHASSEE,FL32309     US3653 Cagney Drive,,Suite 203
O INJURY LAW LLC,AFLAL,601 21 STREET                             300                                       VERO BEACH,FL32960     US601 21 STREET,,300
O Z INJURY LAW PA,IDOMP,9370 SW 72 STREET                         A-266                                     MIAMI,FL33173     US9370 SW 72 STREET,,A-266
"O Z INJURY LAW, PLLC",AFLAL,9370 SW 72 STREET                                                                   MIAMI,33173     UN9370 sw 72 street,,
"OCATES FOR JUSTICE LAW FIRM, PA",ADOMP,505 E. Jackson St.                        SUITE 300                                 TAMPA,FL33602     US505 E. Jackson St.,,SUITE 300
"OCATES OF JUSTICE, P.A.",ADOMP,6345 COLLINS AVENUE                       SUITE 100                                 MIAMI BEACH,FL33141       6345 COLLINS AVENUE,,SUITE 100
OCIATES & DOUGLAS B. STEIER PERSONAL INJURY ATTORNEY P.A.,IDOMP,1375 JACKSON STREET #205                  TIDEWATER BUILDING                        FORT MYERS,FL33901       1375 JACKSON STREET #205,,TIDEWATER BU
"OCIATES AND BRUCE L. SCHEINER PERSONAL INJURY LAWYERS, P.A.",ADOMP,4020 EVANS AVE.                                                                     FORT MYERS,FL33901     USP.O. BOX 61645,,
"OCIATION OF FLORIDA JUSTICE ATTORNEYS, INC.",IDOMNP,2544 BLAIRSTONE PINES DRIVE                                                         TALLAHASSEE,FL32301       2544 BLAIRSTONE PINES DR,IVE,
"ODILY INJURY LAW CENTER OF A. KARL STEVENS, JR., P.A.",IDOMP,"% A. KARL STEVEN, JR.                     100 S. ASHLEY DR #1360                    TAMPA","FL33602       % A. KARL STEVEN, JR.",,100 S. ASHLE
"OFFICE OF LEWIS N. JACK, JR. TRIAL ATTORNEY, P.A.",ADOMP,8950 S.W. 74 Court                                                                  MIAMI,FL33156     US8950 S.W. 74 Court,,
"OFFICES OF JAMES RICHARD HOOPER NATIONAL LITIGATION, P.A.",IDOMP,37 N. ORANGE AVENUE                       210                                       ORLANDO,FL32801       37 N. ORANGE AVENUE,,210
OLETTE WALKER ACCIDENT INJURY LAWYERS PA,IDOMP,7001 RIDGE RD                                                                       PORT RICHEY,FL34668     US7001 RIDGE RD,,
"ON INJURY LAW, PLLC",AFLAL,495 GRAND BOULEVARD                                                                 MIRAMAR BEACH,FL32550     USP.O. BOX 424,,
OR CITY ACCIDENT ATTORNEYS P.L.L.C.,AFORL,3874 Sheridan Street                                                                HOLLYWOOD,FL33021     US3874 Sheridan Street,,
ORESQ ACCIDENT INJURY LAWYER REFERRAL SERVICE LLC,IFLAL,"1200 BRICKELL AVENUE, SUITE 1950 #1010                                              MIAMI","FL33131     US1200 BRICKELL AVENUE, SU",ITE 1950 #1010,
"ORLANDO INJURY LAW FIRM, P.A.",ADOMP,7065 Westpoint Blvd                                                                 ORLANDO,FL32835     US7065 Westpoint Blvd,,
OSI INJURY LAW LLC,AFLAL,1995 EAST OAKLAND PARK BLVD.              SUITE 115                                 FT. LAUDERDALE,FL33306     US1995 EAST OAKLAND PARK B,LVD.,SUITE 115
"OUD INJURY LAW, PLLC",AFLAL,2001 PALM BEACH LAKES BLVD                SUITE 502E                                WEST PALM BEACH,FL33401       2001 PALM BEACH LAKES BL,VD,SUITE 502E
"OUNTING, LITIGATION, TURNAROUND & ADVISORY COLLABORATIVE, PLLC",AFLAL,12857 SW 252 Street                       202                                       Homestead,FL33032     US12857 SW 252 Street,,202
"P INJURY LAW, PA",ADOMP,99 6th St                                                                           WINTER HAVEN,FL33880     US99 6th St,,
PA ACCIDENT ATTORNEYS LLC,IFLAL,5401 W. KENNEDY BLVD.                     SUITE 100                                 TAMPA,FL33609     TO5401 W. KENNEDY BLVD.,,SUITE 100
"PA BAY TRIAL LAWYERS ASSOCIATION, INC.",ADOMNP,16120 Muirfield Dr                                                                  Odessa,FL33556     USP O Box 10653,,
PA BAY TRIAL TEAM P.A.,IDOMP,3201 W. TAMPA BAY BLVD.                                                             TAMPA,FL33607       3201 W. TAMPA BAY BLVD.,,
PEOPLE'S TRIAL GROUP PLLC,IFLAL,2450 maitland center parkway                                                        maitland,FL32751     US2450 maitland center par,kway,
"PERSONAL INJURY LAW FIRM, INC.",IDOMP,"11900 BISCAYNE BLVD., SUITE 808                                                     N. MIAMI","FL33181       11900 BISCAYNE BLVD., SU",ITE 808,
"PERSONAL INJURY LAW FIRM, INC.",IDOMP,1431 PONCE DE LEON BOULEVARD                                                        CORAL GABLES,FL33134       1431 PONCE DE LEON BOULE,VARD,
"PERSONAL INJURY LAW GROUP, P.A.",IDOMP,1930 HARRISON ST.                         SUITE 309                                 HOLLYWOOD,FL33020     US1930 HARRISON ST.,,SUITE 309
"PERSONAL INJURY LAW GROUP, PA",IDOMP,"420 LINCOLN ROAD, STE 357                                                           MIAMI BEACH","FL33139     US420 LINCOLN ROAD, STE 35",7,
"PERSONAL INJURY LEGAL CENTER, INC.",IDOMP,6950 N KENDALL DR                         2ND FLOOR                                 MIAMI,FL33156       6950 N KENDALL DR,,2ND FLOOR
"PERSONAL INJURY LEGAL CENTER, P.A.",IDOMP,236 VALENCIA AVE.                                                                   CORAL GABLES,FL33134       236 VALENCIA AVE.,,
"PERSONAL INJURY PROTECTION LAWYERS, PA",ADOMP,300 SE 17TH STREET                                                                  FORT LAUDERDALE,FL33316       300 SE 17TH STREET,,
"PERSONAL PERSONAL INJURY LAW FIRM, P.A.",IDOMP,600 SOUTH ANDREWS AVENUE                  SUITE 600                                 FORT LAUDERDALE,FL33301       600 SOUTH ANDREWS AVENUE,,SUITE 600
"PERTY LITIGATION GROUP, PLLC",AFLAL,2750 SW 145th Ave                                                                   Miramar,FL33027     US2750 SW 145th Ave,,
"PICAL INJURY FIRM, PLLC",AFLAL,7463 CONROY WINDERMERE ROAD               SUITE A                                   ORLANDO,FL32835     US7463 CONROY WINDERMERE R,OAD,SUITE A
"PIRO INJURY GROUP, P.A.",ADOMP,3000 EDGEWATER DR                                                                   ORLANDO,FL32804     US3000 EDGEWATER DR,,
"PIRO INJURY LAW, P.A.",ADOMP,8050 SW 120TH STREET                                                                PINECREST,FL33156     UN8050 SW 120TH STREET,,
"PP INJURY & CAR ACCIDENT LAW FIRM, L.L.C.",AFLAL,10432 Greendale Drive                                                               Tampa,FL33626     US10432 Greendale Drive,,
"PPARD INJURY FIRM, PLLC",AFLAL,1556 KINTLA RD.                                                                     APOPKA,FL32712     UN9 Hampshire Pt,,
"R AND MINORITY JUSTICE ASSOCIATION LEGAL DEFENSE FUND, INC.",ADOMNP,"5745 S.W. 75th Street, # 149              # 149                                     Gainesville",FL32608     US5745 SW 75TH STREET BOX,149,#149
R INJURY FIRM PLLC,AFLAL,137 W ROYAL PALM RD                                                                 BOCA RATON,FL33432       137 W ROYAL PALM RD,,
R ST PETE FAMILY AND INJURY LAWYERS PLLC,AFLAL,6529 Central Avenue                                                                 Saint Petersburg,FL33710     US6529 Central Avenue,,
R TRIAL LAW P.A.,IDOMP,11800 DR MLK JR ST N                      #3303                                     ST PETERSBURG,FL33716       PO BOX 20648,,
"RAM INJURY LAW, P.A.",ADOMP,2201 NE COACHMAN ROAD                     SUITE 102                                 CLEARWATER,FL33765       2201 NE COACHMAN ROAD,,SUITE 102
RAY & GUARI TRIAL ATTORNEYS PL,AFLAL,1525 NORTH FLAGLER DRIVE                  SUITE 100                                 WEST PALM BEACH,FL33401     US1525 NORTH FLAGLER DRIVE,,100
"RAY INJURY CENTER, PLLC",AFLAL,7060 TAFT ST.                                                                       HOLLYWOOD,FL33024     US7060 TAFT ST,,
RE INJURY LAW LLC,AFLAL,11525 SW 88TH AVE                                                                   MIAMI,FL33176     UN11525 SW 88TH AVE,,
"REDITING COMMISSION FOR LAW AND JUSTICE EDUCATION, CORP.",IFORNP,926 ENCLAVE TRAIL                                                                   NEW BRAUNFELS,TX78132     US926 ENCLAVE TRAIL,,
"RES INJURY LAW, PLLC",IFLAL,2552 WILD TAMARIND BLVD                                                             ORLANDO,FL32867     US2552 WILD TAMARIND BLVD,,
"RICAN ACCIDENT ATTORNEYS REFERRAL SERVICE, INC.",IDOMNP,2730 SW 3RD AVE                                                                     MIAMI,FL33129       2730 SW 3RD AVE,,
"RICAN ACCIDENT ATTORNEYS, INC.",IDOMP,"261 NAVARRE AVENUE, #301                                                            CORAL GABLES","FL33134       261 NAVARRE AVENUE, #301",,
"RICAN ASSOCIATION OF ACCIDENT ATTORNEYS, INC.",IDOMP,1655 PALM BEACH LAKES BLVD.               SUITE 909                                 W PALM BEACH,FL33401       1655 PALM BEACH LAKES BL,VD.,SUITE 909
"RICAN ASSOCIATION OF MOTORCYCLE INJURY LAWYERS, INC.",AFORP,"7882 E Gray Rd, Ste 3                                                               Scottsdale","AZ85260     US7882 E Gray Rd, Ste 3",,
"RICAN CENTER FOR LAW AND JUSTICE, INC.",IFORNP,1000 REGENT UNIVERSITY DRIVE                                                        VIRGINIA BEACH,VA23464       1000 REGENT UNIVERSITY D,RIVE,
"RICAN CENTER FOR LAW AND JUSTICE, INC.",IFORNP,1333 REGENT UNIVERSITY DRIVE              Suite 101                                 VIRGINA BEACH,VA23464     US1333 REGENT UNIVERSITY D,RIVE,Suite 101
"RICAN JUSTICE, P.A.",ADOMP,412 NE 4TH STREET                                                                   FORT LAUDERDALE,FL33301       412 NE 4TH STREET,,
"RIDA ACCIDENT LAW, LLC",IFLAL,5546 1ST AVE N.                                                                     ST. PETERSBURG,FL33710       5546 1ST AVE N.,,
"RIDA ACCIDENT LAW, PLLC",IFLAL,3015 N Ocean Blvd                                                                   FORT LAUDERDALE,FL33308     US3015 N Ocean Blvd,,
"RIDA ACCIDENT NETWORK, P.A.",ADOMP,815 WATER ST.                             1204B                                     TAMPA,FL33602     US815 WATER ST.,,1204B
"RIDA ADMIRALTY TRIAL LAWYERS ASSOCIATION, INC.",IDOMNP,44 WEST FLAGLER STREET                    SUITE 750                                 MIAMI,FL33130       44 WEST FLAGLER STREET,,SUITE 750
"RIDA APPEALS AND TRIAL SUPPORT, P.A.",ADOMP,20 NORTH ORANGE AVENUE                    SUITE 1600                                ORLANDO,FL32801     UN2201 Gordon Path,,
"RIDA ATTORNEYS FOR JUSTICE, INC.",IDOMNP,2544 BLAIRSTONE PINES DR.                                                           TALLAHASSEE,FL32301       2544 BLAIRSTONE PINES DR,.,
"RIDA CAR ACCIDENT LAWYER TEAM, PLLC",IFLAL,32 N KIRKMAN RD                                                                     ORLANDO,FL32811     US32 N KIRKMAN RD,,
"RIDA CAR ACCIDENT LAWYERS GROUP, PLLC",IFLAL,32 N KIRKMAN RD                                                                     ORLANDO,FL32811     US32 N KIRKMAN RD,,
"RIDA CENTER FOR LAW AND JUSTICE, INC.",IDOMNP,C/O ELLIOTT MANNIING                      ROOM G266                                 CORAL GABLES,FL33146       C/O ELLIOTT MANNING,,P.O. BOX 248
"RIDA IMMIGRATION LAW AND JUSTICE CENTER, INC.",ADOMNP,1411 Dean Road                                                                      Orlando,FL32825     USPO Box 1285,,
"RIDA INJURY & REGENERATIVE MEDICINE, PLLC",AFLAL,108 Barbados DR                                                                     PONTE VEDRA,FL32081     US108 Barbados DR,,
"RIDA INJURY ATTORNEYS, P.L.",IFLAL,"3111 W. DR. MARTIN LUTHER KING, JR., BLVD.STE 100                                   TAMPA",FL33607       3111 W. DR. MARTIN LUTHE,"R KING, JR., BL",VD.STE 100
RIDA INJURY FIRM P.A.,ADOMP,1608 E COMMERCIAL BLVD                                                              FT. LAUDERDALE,FL33334       1608 E COMMERCIAL BLVD,,
"RIDA INJURY FIRM, P.A.",IDOMP,4760 W. Commercial Blvd.                                                            Tamarac,FL33319     US4760 W. Commercial Blvd.,,
"RIDA INJURY LAW FIRM, P.A.",ADOMP,8601 Commodity Circle                     #100                                      Orlando,FL32819     US8601 Commodity Circle,,#100
"RIDA INJURY LAW GROUP, PA",ADOMP,2550 North Federal Highway                2nd Floor                                 FT LAUDERDALE,FL33305     US2550 North Federal Highw,ay,2nd Floor
"RIDA INJURY LAWYERS, PLLC",AFLAL,2390 NE 172 ST                                                                      NORTH MIAMI BEAC,H           FL33160       2390 NE 172 ST,,
"RIDA INJURY RELIEF, PLLC",AFLAL,6545 SW 20TH COURT                                                                  PLANTATION,FL33317       6545 SW 20TH COURT,,
"RIDA INJURY SOLUTIONS GROUP, P.A.",ADOMP,6923 NW 77TH AVE                                                                    MIAMI,FL33166     US6923 NW 77TH AVE,,
"RIDA JUSTICE ATTORNEYS ASSOCIATION, INC.",IDOMNP,2544 BLAIRSTONE PINES DRIVE                                                         TALLAHASSEE,FL32301       2544 BLAIRSTONE PINES DR,IVE,
"RIDA JUSTICE ATTORNEYS, INC.",IDOMNP,2544 BLAIRSTONE PINES DRIVE                                                         TALLAHASSEE,FL32301       2544 BLAIRSTONE PINES DR,IVE,
"RIDA JUSTICE LAW FIRM, PLLC",IFLAL,101 NE 3RD AVENUE                         SUITE 1500                                FORT LAUDERDALE,FL33301     US101 NE 3RD AVENUE,,SUITE 1500
RIDA JUSTICE LAW GROUP PLLC,AFLAL,The Biltmore Offices                      1200 Anastasia Ave.                       Coral Gables,FL33134     USThe Biltmore Offices,,1200 Anastas
"RIDA LITIGATION ASSOCIATES, PLLC",IFLAL,255 PRIMERA BLVD.                         160                                       LAKE MARY,FL32746       255 PRIMERA BLVD.,,160
RIDA LITIGATION GROUP P.A.,IDOMP,4839 VOLUTEER RD                                                                    DAVIE,FL33330     US4839 VOLUTEER RD,,
"RIDA LITIGATION PARTNERS, PLLC",IFLAL,7580 NW 5th Street                        # 15684                                   PLANTATION,FL33324     US7580 NW 5th Street,,15684
"RIDA LITIGATION SOLUTIONS, P.A.",ADOMP,1400 Village Square Blvd. #3-195                                                    Tallahassee,FL32312-1231US1400 Village Square Blvd,. #3-195,
"RIDA MEDICOLEGAL MALPRACTICE CONSULTANTS, INC",IDOMP,2992 U.S. HWY. 98 EAST                                                              LANARK VILLAGE,FL32323       2992 U.S. HWY. 98 EAST,,P.O.BOX 703
"RIDA OPIOD INJURY LAWYERS, INC.",IDOMP,4519 HIGHWAY 90                                                                     PACE,FL32571     US4519 HIGHWAY 90,,
RIDA PERSONAL INJURY LAW FIRM L.L.C.,IFLAL,4755 CENTRAL AVE                                                                    SAINT PETERSBURG,FL33713       4755 CENTRAL AVE,,
"RIDA PERSONAL INJURY LAW FIRM, P.A.",IDOMP,1919 N. State Road 7                      SUITE 108                                 Margate,FL33063     US1919 N. State Road 7,,Suite 108
RIDA PERSONAL INJURY LAW TEAM LLC,IFLAL,5401 S. Kirkman Rd Ste 310                                                          Orlando,FL32819     US5401 S. Kirkman Rd Ste 3,10,
"RIDA PERSONAL INJURY LAW TEAM ORLANDO, LLC",IFLAL,5401 S. KIRKMAN RD.                       SUITE 310                                 ORLANDO,FL32819     US5401 S. KIRKMAN RD.,,SUITE 310
"RIDA PERSONAL INJURY LAW TEAM TREASURE COAST, LLC",IFLAL,5401 S. KIRKMAN RD.                       SUITE 310                                 ORLANDO,FL32819     US5401 S. KIRKMAN RD.,,SUITE 310
"RIDA SPINE INJURY CLINIC, PLLC",AFLAL,7807 BAYMEADOWS ROAD EAST                 SUITE 208                                 JACKSONVILLE,FL32256     US7807 BAYMEADOWS ROAD EAS,T,SUITE 208
"RIDA TRIAL COUNSEL, PLLC",IFLAL,4705 26TH STREET WEST                                                               BRADENTON,FL34207       4705 26TH STREET WEST,,
"RIDA TRIAL COURT STAFF ATTORNEYS ASSOCIATION, INC.",ADOMNP,746 Woods Dr                                                                        Niceville,FL32578     USP.O. Box 754,,
"RIDA TRIAL LAWYERS ASSOCIATION, INC.",IDOMNP,4519  HIGHWAY 90                                                                    PACE,FL32571       4519  HIGHWAY 90,,
"RIDA TRIAL LAWYERS, LLC",IFLAL,633 S.E. 3RD AVENUE                       SUITE 302                                 FORT LAUDERDALE,FL33301     US633 S.E. 3RD AVENUE,,SUITE 302
"RIDA TRIAL LAWYERS, P.A.",ADOMP,2431 Lee Road                                                                       Winter Park,FL32789     US2431 Lee Road,,
"RIDA TRIAL LAWYERS, P.A.",IDOMP,"320 N. CEDAR BLUFF RD., STE 203                                                     KNOXVILLE","FL37923       320 N. CEDAR BLUFF RD.,",STE 203,
"RIDA TRIAL, P.A.",ADOMP,301 HILLCREST STREET                                                                ORLANDO,FL32801     US301 HILLCREST STREET,,
"RILLO INJURY LAW, P.A.",ADOMP,4432 NW 23rd Ave                                                                    GAINESVILLE,FL32606     US4432 NW 23rd Ave,,
"RIN TRIAL LAW, PLLC",AFLAL,1901 ULMERTON RD                          SUITE 625                                 CLEARWATER,FL33762     US1901 ULMERTON RD,,SUITE 625
"RION ACCIDENT & INJURY ATTORNEYS, PLLC",AFLAL,150 S. Pine Island Rd                     Suite 300                                 Plantation,FL33324     US382 NE 191st St,,
"RIS TRIAL LAW, P.A.",ADOMP,7645 Gate Parkway                         The Offices at Village Walk               Jacksonville,FL32256     US7645 Gate Parkway,,The Offices
RLMAN & CLARK TRIAL ATTORNEYS LLC,IFLAL,10812 GANDY BLVD                                                                    ST. PETERSBURGH,FL33702       10812 GANDY BLVD,,
RLMAN TRIAL GROUP PLLC,AFLAL,2274 SR 580                                                                         CLEARWATER,FL33763     US2274 SR 580,,
"RMORE TRUST AND TRIAL, P.A.",ADOMP,100 E. NEW YORK AVENUE                    SUITE 103NC                               DELAND,FL32724     UN100 E. NEW YORK AVENUE,,SUITE 103NC
"RNIERI TRIAL LAW, LLC",AFLAL,214 S. ARMENIA AVE                                                                  TAMPA,FL33609       214 S. ARMENIA AVE,,
"RO INJURY LAW, PA",ADOMP,1310 N. Main st                                                                     kissimmee,FL34744     US1310 N. Main st,,
"ROLL INJURY LAW, PLLC",AFLAL,3350 SW 148TH AVENUE                      SUITE 110                                 MIRAMAR,FL33027     US3350 SW 148TH AVENUE,,SUITE 110
"ROMED INJURY CENTER, P.A.",ADOMP,1803 Park Center Dr Ste 110                                                         Orlando,FL32835     US1803 Park Center Dr Ste,110,
"RON TRIAL LAW, P.A.",ADOMP,9100 S. DADELAND BLVD.                    SUITE 1500                                MIAMI,FL33156     UN9100 S. DADELAND BLVD.,,SUITE 1500
ROPRACTIC SPINE AND INJURY P.A.,ADOMP,158 TUSKAWILLA RD.                        1308                                      WINTER SPRINGS,FL32708     US158 TUSKAWILLA RD.,,1308
"ROSE INJURY LAW, PLLC",IFLAL,1649 SE 12th Ct                                                                     FORT LAUDERDALE,FL33316     US1649 SE 12th Ct,,
"RR JUSTICE LAW FIRM, PLLC",AFLAL,1101 S Belcher Rd                         Unit 2                                    Largo,FL33771     USPost Office Box 20062,,
"RTS AND SPINE INJURY CENTER, P.A.",ADOMP,654 WEST INDIANTOWN ROAD                  SUITE 107                                 JUPITER,FL33458       654 WEST INDIANTOWN ROAD,,SUITE 107
RY HANDS REHAB & SPORTS INJURY RECOVERY PLLC,IFLAL,711 VILLA CIRCLE ROAD                                                               BOYNTON BEACH,FL33435     US711 VILLA CIRCLE ROAD,,
"S WELLNESS AND INJURY CENTER, P.A.",IDOMP,7500 BRYAN DAIRY RD                       SUITE A                                   LARGO,FL33777     US13528 100TH AVE N,,
"SAMO AVIATION & TRIAL LAW FIRM, P.A.",IDOMP,"1040 BAYVIEW DR., STE. 534                                                          FT. LAUDERDALE","FL33304       1040 BAYVIEW DR., STE. 5",34,
"SE INJURY FIRM, P.A.",ADOMP,1330 SE 4TH AVENUE                        SUITE G                                   FORT LAUDERDALE,FL33316     US1330 SE 4TH AVENUE,,SUITE G
"SE LAW LITIGATION, LLC",IFORL,6990 INDIAN CREEK DRIVE                                                             MIAMI BEACH,FL33141     US6990 INDIAN CREEK DRIVE,,
"SERMAN INJURY LAW, PLLC",IFLAL,1072 Alder Tree Dr                                                                  Apopka,FL32703     US1072 Alder Tree Dr,,
"SHINE RESEARCH TRIAL CENTER, PLLC",IFLAL,2565 N TOLEDO BLADE BLVD UNIT 2                                                     NORTH PORT,FL34289     US2565 N TOLEDO BLADE BLVD,UNIT 2,
SHINE STATE INJURY LAWYERS LLC,AFLAL,3850 SW 40TH STREET                       P.H. 10                                   CORAL GABLES,FL33146     US3850 SW 40TH STREET,,P.H. 10
SNER GRAHAM INJURY LAW PLLC,AFLAL,"25 SE 2ND AVENUE, SUITE 808                                                         MIAMI","FL33131     US25 SE 2ND AVENUE, SUITE",808,
SO/FELDMAN TRIAL LAWYERS PLLC,AFLAL,1001 YAMATO RD STE 106                                                              BOCA RATON,FL33431     US301 W ATLANTIC AVE STE O,-2,
"SON TRIAL GROUP, PLLC",AFLAL,434 S. WASHINGTON BLVD.                                                             SARASOTA,FL34236     US434 S. WASHINGTON BLVD.,,
"SONAL INJURY & ACCIDENT LAW CENTER, P.A.",IDOMP,"900 N FEDERAL HIGHWAY, SUITE 200                                                    BOCA RATON","FL33432     US900 N FEDERAL HIGHWAY, S",UITE 200,
"SONAL INJURY AND PAIN RELIEF CENTER, P.A.",IDOMP,1501 NW 178TH LANE                                                                  HOLLYWOOD,FL33029       1501 NW 178TH LANE,,
"SONAL INJURY ASSOCIATES, P.A.",IDOMP,101 E KENNEDY BLVD                        SUITE 3170                                TAMPA,FL33602       101 E KENNEDY BLVD,,SUITE 3170
SONAL INJURY ATTORNEY MIAMI LLC,IFLAL,12228 QUILTING LANE                                                                 BOCA RATON,FL33428       12228 QUILTING LANE,,
"SONAL INJURY ATTORNEY'S NETWORK, INC.",IDOMP,230 ROYAL PALM WAY SUITE 305                                                        PALM BEACH,FL33480       230 ROYAL PALM WAY SUITE,305,
"SONAL INJURY CENTER OF GERALD R. SAGE AND ASSOCIATES, P.A.",IDOMP,11963 NORTH FLORIDA AVE.                  SUITE A                                   TAMPA,FL33612-5221  11963 NORTH FLORIDA AVE.,,SUITE A
"SONAL INJURY LAW CENTER, P.A.",IDOMP,2102 W. Platt St.                         Tampa                                     TAMPA,FL33606     US2102 W. Platt St.,,
"SONAL INJURY LAW GROUP, P.A.",IDOMP,1135 KANE CONCOURSE                       SECOND FLOOR                              BAY HARBOR ISLAN,DS          FL33154     USPO BOX 402188,,C/O GINA N.
"SONAL INJURY LAW GROUP, P.A.",IDOMP,"420 W. BRANDON BLVD., STE. 202                                                      BRANDON","FL33511       420 W. BRANDON BLVD., ST",E. 202,
"SONAL INJURY LAW OFFICE OF CHELSIE M. LAMIE, P.A.",ADOMP,1727 Coachman Plaza Drive                 202                                       Clearwater,FL33759     US1727 Coachman Plaza Driv,e,Suite 202
SONAL INJURY LAW PARTNERS LLC,AFLAL,8360 W FLAGLER ST.                                                                  MIAMI,FL33144     US8360 W FLAGLER ST.,,
"SONAL INJURY LAW, P.A.",IDOMP,3216 GRAND AVE.                                                                     MIAMI,FL33133     US3216 GRAND AVE.,,
"SONAL INJURY LAWYER'S GROUP, INC.",IDOMP,% RICHARD RYNKIEWICZ                      3000 NE 30TH PLACE SUITE 200              FT. LAUDERDALE,FL33306       % RICHARD RYNKIEWICZ,,3000 NE 30TH
"SONAL INJURY LAWYERS GROUP, INC.",ADOMP,9900 West Sample Road                                                               Coral Springs,FL33065     US9900 West Sample Road,,
"SONAL INJURY LEGAL CENTER, P.A.",IDOMP,"3191 CORAL WAY, STE. 107                                                            MIAMI","FL33145       3191 CORAL WAY, STE. 107",,
"SONAL INJURY LEGAL SOLUTIONS, LLC",AFLAL,940 S. STATE ROAD 7                                                                 PLANTATION,FL33317     US940 S. STATE ROAD 7,,
"SONAL INJURY LEGAL TEAM, P.A.",ADOMP,4000 HOLLYWOOD BLVD.                      SUITE 555-S                               HOLLYWOOD,FL33021     US4000 HOLLYWOOD BLV.,,SUITE 555-S
SONAL INJURY LITIGATION LAWYERS PLLC,IFLAL,"7350 FUTURES DRIVE,                       SUITE 9                                   ORLANDO","FL32819       7350 FUTURES DRIVE,",,SUITE 9
"SONAL INJURY MEDICAL GROUP, P.A.",IDOMP,"300 RIVERSIDE DRIVE, EAST                 SUITE 3700                                BRADENTON","FL34208       300 RIVERSIDE DRIVE, EAS",T,SUITE 3700
SONAL INJURY PAIN SOLUTIONS PLLC,AFLAL,4929 SW 74TH CT                           1ST FL                                    MIAMI,FL33155     US4929 SW 74TH CT,,1ST FL
"SONAL INJURY PARALEGAL SERVICES, INC.",IDOMP,C/O MITCHELL D. ARONSON                   15493 CHLOE CIRCLE                        FORT MYERS,FL33908       C/O MITCHELL D. ARONSON,,15493 CHLOE
SONAL INJURY TRIAL LAWYERS L.L.C,IFLAL,"319 CLEMATIS STREET                       SUITE 701                                 WEST PALM BEACH,",FL33401       319 CLEMATIS STREET,,SUITE 701
"SPER INJURY LAW, PLLC",AFLAL,"121 SOUTH ORANGE AVENUE, #1500                                                      ORLANDO","FL32801     US121 SOUTH ORANGE AVENUE,",#1500,
"ST CIRCUIT ACADEMY OF TRIAL LAWYERS, INCORPORATED",IDOMNP,% JAMES F MCKENZIE                        900 E SCOTT ST                            PENSACOLA,FL32503       % JAMES F MCKENZIE,,900 E SCOTT
"STAL CAIN INJURY LAW, LLC",IFLAL,500 CANAL STREET                                                                    NEW SMYRNA BEACH,FL32168     UN500 CANAL STREET,,
STAL TRIAL ATTORNEYS LLC,AFLAL,315 STONE RIDGE DRIVE                                                               PONTE VEDRA,FL32081     US315 STONE RIDGE DRIVE,,
"SUING JUSTICE LAW FIRM, PLLC",IFLAL,255 PRIMERA BLVD.                         SUITE 160                                 LAKE MARY,FL32746       255 PRIMERA BLVD.,,SUITE 160
"SUMER JUSTICE ATTORNEYS, PLLC",IFLAL,"9100 S. DADELAND BLVD., STE 1710                                                    MIAMI","FL33156       9100 S. DADELAND BLVD.,",STE 1710,
"SUMER JUSTICE LAW GROUP, LLC",IFLAL,1815 KINGS MILL DR                                                                  ORLANDO,FL32826     US1815 KINGS MILL DR,,
"T BAY ACCIDENT AND WELLNESS CENTER, P.A.",ADOMP,405 SEMINOLE BLVD                                                                   LARGO,FL33770       405 SEMINOLE BLVD,,
"T CAR ACCIDENT LAWYER IN MIAMI.COM, INC.",IDOMP,351 NW LEJEUNE ROAD STE 202                                                         MIAMI,FL33126       351 NW LEJEUNE ROAD STE,202,
"T INJURY LAW, PLLC",AFLAL,"901 BRICKELL KEY BLVD, 3406                                                         MIAMI","FL33131     US901 BRICKELL KEY BLVD, 3",406,
T PALM BEACH INJURY CLINIC PLLC,AFLAL,5076 LAKE CATALINA DRIVE UNIT C                                                     BOCA RATON,FL33496     US5076 LAKE CATALINA DRIVE,UNIT C,
"T TISSUE INJURY & TREATMENT CENTER OF SOUTHEAST FLORIDA, PLLC",IFLAL,"8895 NORTH MILITARY TRAIL, STE. 201-E                                               PALM BEACH GARDE",NS          FL33410       3402 BATTLEGROUND AVENUE,,
"T TRIAL ATTORNEYS, P.A.",IDOMP,3516 Battersea Ct                                                                   Belle Isle,FL32812     USPO BOX 3306,,
"T TRIAL LAWYERS IN AMERICA, INC.",IDOMNP,"4905 34TH ST. S., STE #113                                                          ST. PETERSBURG","FL33711       4905 34TH ST. S., STE #1",13,
TAINABLE JUSTICE COMMUNITY LAW CENTER INC,IDOMNP,1821 E MAXWELL ST                                                                   PENSACOLA,FL32503       P.O. BOX 2407,,
"TCALLMOE - ORLANDO PERSONAL INJURY LAWYERS, P.A.",ADOMP,135 W. CENTRAL BLVD.                      SUITE 320B                                ORLANDO,FL32801     US135 W. CENTRAL BLVD.,,SUITE 320B
TE CHIROCARE AND INJURY RECOVERY PLLC,AFLAL,4126 8TH AVE N                                                                      SAINT PETERSBURG,FL33713     US4126 8TH AVE N,,
"TENKA INJURY LAW, PLLC",AFLAL,4640 SW ARDSLEY DR                                                                  STUART,FL34997     US4640 SW ARDSLEY DR,,
"TER FOR IMMIGRANT JUSTICE AND INCLUSION, PLLC",IFLAL,261 N UNIVERSITY DRIVE SUITE 500                                                    FORT LAUDERDALE,FL33324       261 N UNIVERSITY DRIVE S,UITE 500,
"TER INJURY LAW, LLC",AFLAL,8500 SW 8TH STREET                        SUITE 262                                 MIAMI,FL33144     US8500 SW 8TH STREET,,SUITE 262
"TER INJURY LAW, PA",IDOMP,134 DANUBE AVE.                           # 2                                       TAMPA,FL33606     US134 DANUBE AVE.,,# 2
"TERO JUSTICE, P.A.",IDOMP,15251 Ballast Point Drive                                                           Fort Myers,FL33908-3450USPO BOX 2991,,
TESTED LITIGATION ATTORNEYS PLLC,IFLAL,"1999 N UNIVERSITY DR,                                                               CORAL SPRINGS","FL33071     US1999 N UNIVERSITY DR,",,
"TH & WILLIAMS TRIAL GROUP, PLLC",AFLAL,1820 West Colonial Drive                                                            Orlando,FL32804     US1820 West Colonial Drive,,
"TH AND JUSTICE, PLLC",AFLAL,4750 DOLPHIN CAY LN. SO.                  STE 608                                   ST. PETERSBURG,FL33711     US4750 DOLPHIN CAY LN. SO.,,STE 608
TH FLORIDA ADMIRALTY TRIAL LAWYERS ASSOCIATION LLC,AFLAL,4351 NW 9TH ST                            APT 18                                    MIAMI,FL33126       PO BOX 14683,,
"TH FLORIDA CHIROPRACTIC INJURY CENTER, P.A.",ADOMP,868 BLANDING BLVD #128                                                              ORANGE PARK,FL32068     US2330 SANDRIDGE RD,,
TH FLORIDA INJURY ATTORNEYS P.A.,ADOMP,14 NE 1st Ave                                                                       MIAMI,FL33132     US14 NE 1st Ave,,
"TH FLORIDA INJURY LAW, P.A.",ADOMP,300 SE 14th Street                                                                  FT. LAUDERDALE,FL33316     US300 SE 14th Street,,
"TH FLORIDA LITIGATION GROUP, P.A.",ADOMP,"515 East Las Olas Boulevard, Suite 1301                                             FORT LAUDERDALE",FL33301     US515 East Las Olas Boulev,"ard, Suite 1301",
"TH FLORIDA PERSONAL INJURY CENTER, P.A.",ADOMP,11780 NW 12Th Street                                                                Plantation,FL33323     USP.O. Box 450816,,
"TH FLORIDA TRIAL ATTORNEYS, A PRIVATE LAW FIRM, P.A.",IDOMP,5595 Orange Dr                            STE 101                                   Davie,FL33314     USPO Box 267506,,
"TH FLORIDA TRIAL LAWYERS ASSOCIATION, INC.",IDOMP,198 N.W. 37TH AVENUE                                                                MIAMI,FL33125       198 N.W. 37TH AVENUE,,
TH FLORIDA TRIAL LAWYERS LLC,AFLAL,5595 ORANGE DRIVE                         Suite 101                                 DAVIE,FL33314     US5595 ORANGE DRIVE,,Suite 101
"TH FLORIDA TRIAL LAWYERS, A PRIVATE LAW FIRM LLC",AFLAL,2645 EXECUTIVE PARK DR.                   SUITE 350                                 WESTON,FL33331     UN2645 EXECUTIVE PARK DR.,,SUITE 350
"TH TAMPA INJURY & REHAB, P.A.",ADOMP,1388 NW BOCA RATON BLVD                                                             Boca Raton,FL33432     USP.O. BOX 1088,,
"TH TAMPA INJURY, PLLC",AFLAL,7415 S KISSIMMEE ST                                                                 TAMPA,FL33616     US7415 S KISSIMMEE ST,,
"THERN JUSTICE LAWN CARE, INC.",IDOMP,113 Caneletto Way                                                                   North Venice,FL34275     US265 E. MARION AVENUE,,SUITE 112
THERN TRIAL COUNSEL PLLC,IFLAL,205 SOUTH EOLA DRIVE                                                                ORLANDO,FL32801       205 SOUTH EOLA DRIVE,,
THERN TRIAL LAWYERS ASSOCIATION CORP.,ADOMNP,818 Greenbrier Lane                                                                 Tallahassee,FL32308     US1700 N. Monroe Street,,
"THOMPSON TRIAL GROUP, P.A.",IDOMP,5903 Beacon Shores Street                                                           TAMPA,FL33616     US5903 Beacon Shores Stree,t,
"THSHORE INJURY ATTORNEYS, PLLC",AFLAL,244 Apollo Beach Blvd.                                                              Apollo Beach,FL33572     US244 Apollo Beach Blvd.,,
"THWEST FLORIDA TRIAL LAWYERS ASSOCIATION, INC.",IDOMNP,1515 BROADWAY                                                                       FT MYERS,FL33901       1515 BROADWAY,,
"TIAN-AMERICAN INSTITUTE FOR JUSTICE AND LAW, INC.",IDOMNP,140 EAGLE POINT BLVD                                                                AUBURNDALE,FL33823     US140 EAGLE POINT BLVD,,
"TICE FOR ALL - TRIAL LAWYERS, P.A.",ADOMP,500 North Federal Highway                 Suite 200                                 Fort Lauderdale,FL33301     US500 North Federal Highwa,y,Suite 200
TICE LITIGATION ASSOCIATES PLLC,AFLAL,1205 N Franklin St                                                                  TAMPA,FL33602     US1205 N Franklin St,,
"TINDALE BILLINGS INJURY LAW, PLLC",IFLAL,7771 W. OAKLAND PARK BLVD.                SUITE 162                                 SUNRISE,FL33351     UN7771 W. OAKLAND PARK BLV,D.,SUITE 162
"TITUTE FOR LAW AND JUSTICE, INC.",IFORP,1018 DUKE ST                                                                        ALEXANDRIA,VA22314       1018 DUKE ST,,
"TMAN INJURY LAW, P.A.",ADOMP,"1001 Yamato Road, Suite 401                                                         Boca Raton","FL33431     US1001 Yamato Road, Suite",401,
TO INJURY LAW P.A.,ADOMP,2901 CLINT MOORE ROAD                     2-209                                     BOCA RATON,FL33496     US2901 CLINT MOORE ROAD,,2-209
TON INJURY LAW PLLC,AFLAL,"1375 Gateway Blvd, Suite 592                                                        Boynton Beach","FL33426     US1375 Gateway Blvd, Suite",592,
"TOR JUSTICE, PLLC",IFLAL,"15310 AMBERLY DRIVE, STE.250                                                        TAMPA","FL33647     US15310 AMBERLY DRIVE, STE",.250,
"TORY TRIAL COUNSEL, PLLC",AFLAL,"8601 PALISADES LAKE DRIVE, SUITE 202                                                WEST PALM BEACH",FL33411     US8601 PALISADES LAKE DRIV,"E, SUITE 202",
"TOWN TAMPA INJURY LAW, LLC",AFLAL,3105 W CYPRESS ST                                                                   TAMPA,FL33607       3105 W CYPRESS ST,,
"TRAL FLORIDA INJURY & WELLNESS CENTER, P.A.",IDOMP,1005 LASCALA DRIVE                                                                  WINDERMERE,FL34786     US1005 LASCALA DRIVE,,
"TRAL FLORIDA LITIGATION GROUP, P.A.",ADOMP,1000 Legion Place                         750                                       ORLANDO,FL32801     US1000 Legion Place,,750
"TRAL FLORIDA TRIAL GROUP, P.A.",IDOMP,20 SOUTH ROSE AVENUE                      3                                         KISSIMMEE,FL34741     US20 SOUTH ROSE AVENUE,,3
"TRAL FLORIDA TRIAL LAWYERS ASSOCIATION, INC.",ADOMNP,51 E. Jefferson St. #4349                                                           Orlando,FL32802     USP.O. BOX 4349,,
"TRAL JUSTICE, P.A.",ADOMP,509 W COLONIAL DRIVE                                                                ORLANDO,FL32804       509 W COLONIAL DRIVE,,
TRAN LITIGATION P.A.,ADOMP,4920 WEST CYPRESS ST.                     SUITE 104 PMB 5089                        TAMPA,FL33607     US4920 WEST CYPRESS ST.,,SUITE 104 PM
TRIAL ATTORNEYS FL LLC,AFLAL,1771 W COMMUNITY DR                                                                 JUPITER,FL33458     US1771 W COMMUNITY DR,,
TRIAL LAWYERS P.A.,ADOMP,251 VALENCIA AVENUE                       140309                                    CORAL GABLES,FL33134     US251 VALENCIA AVENUE,,140309
"TRIAL LAWYERS, PLLC",IFLAL,13590 SW 134TH AVENUE                     SUITE 111                                 MIAMI,FL33186     US13590 SW 134TH AVENUE,,SUITE 111
"TRIAL SERVICES, P.A.",IDOMP,2300 MAITLAND CENTER PARKWAY              SUITE 200                                 MAITLAND,FL32751       2300 MAITLAND CENTER PAR,KWAY,SUITE 200
"TT JACOBUS FIELDING VILLE TRIAL LAWYERS, L.L.C.",IFLAL,707 W. EAU GALLIE BLVD.                                                             MELBOURNE,FL32935       707 W. EAU GALLIE BLVD.,,
"TT MCMILLEN MALPRACTICE SPECIALIST, P.A.",ADOMP,122 W. Pine Street Ste 300                                                          Orlando,FL32801     US1 S Eola Drive,,Unit 2
"TUAL ACCIDENT ATTORNEY, PLLC",AFLAL,"7754 Okeechobee Blvd., Ste 1094                                                     West Palm Beach","FL33411     US7754 Okeechobee Blvd., S",te 1094,
"UBELLIS CHIROPRACTIC AND ACCIDENT INJURY CENTER, P.A.",IDOMP,8614 LITTLE RD.                                                                     NEW PORT RICHEY,FL34654       8614 LITTLE RD.,,
"UCA TRIAL LAW, PLLC",IFLAL,"151 COLLEGE DR., SUITE 1                                                            ORANGE PARK",FL32065     US5000 US Hwy 17S,,
"UIRE LITIGATION & CONSULTING, PLLC",IFLAL,122 South Calhoun Street                                                            TALLAHASSEE,FL32301     US122 South Calhoun Street,,
UIRE LITIGATION GROUP ORLANDO PLLC,IFLAL,4700 Millenia Blvd                        SUITE 500                                 ORLANDO,FL32839     US7707 SOUTH ORANGE AVE,,# 590391
UIRE LITIGATION GROUP PLLC.,AFLAL,6278 DUPONT STATION COURT                 UNIT 2                                    JACKSONVILLE,FL32217     UN6278 DUPONT STATION COUR,T,UNIT 2
UIRE LITIGATION GROUP TAMPA PLLC,AFLAL,400 N ASHLEY DRIVE                        SUITE 1900                                TAMPA,FL33602       400 N ASHLEY DRIVE,,SUITE 1900
URANCE LITIGATION GROUP P.A.,ADOMP,1500 NE 162nd ST                                                                    MIAMI,FL33162     US1500 NE 162nd ST,,
"URO RIOS TRIAL GROUP, P.A.",IDOMP,2929 FIFTH AVENUE NORTH                                                             SAINT PETERSBURG,FL33713     US2929 FIFTH AVENUE NORTH,,
URY LITIGATION CENTER HOUSTON PLLC,AFLAL,3703 TELEPHONE ROAD                                                                 HOUSTON,TX77023       800 N BELCHER ROAD,,
"USIA CIVIL TRIAL ATTORNEYS ASSOCIATION, INC.",ADOMNP,170 E. Granada Boulevard                                                            Ormond Beach,FL32174     US170 E. Granada Boulevard,,
"UST, SPORTS AND INJURY CLINIC, P.A.",IDOMP,8083 PINE LAKE RD.                                                                  JACKSONVILLE,FL32256     US8083 PINE LAKE RD.,,
"USTINE INJURY CENTERS, P.A.",IDOMP,5317 VILLAGE MARKET DRIVE                                                           WESLEY CHAPEL,FL33543       5317 VILLAGE MARKET DRIV,E,
"VAK DIEZ LITIGATION ATTORNEYS, P.A.",IDOMP,1001 NORTH MIAMI BEACH BLVD                                                         NORTH MIAMI BEAC,H           FL33162     US1001 NORTH MIAMI BEACH B,LVD,
"VAK, DIEZ LITIGATION ATTORNEYS, P.A.",ADOMP,16853 NE 2nd Ave                                                                    North Miami Beac,h           FL33162     US16853 NE 2nd Ave,,
"VATED SPINE INJURY GROUP, PLLC",AFLAL,6163 PINA COLADA ST                                                                 ZEPHYRHILLS,FL33542     US6163 PINA COLADA ST,,
"VER INJURY FIRM, P.A.",ADOMP,3301 NORTH UNIVERSITY DRIVE               SUITE 100                                 CORAL SPRINGS,FL33065     US3301 NORTH UNIVERSITY DR,IVE,SUITE 100
"VER INJURY LAW, PLLC",AFLAL,1000 Riverside Ave. Suite 307                                                       Jacksonville,FL32204     US1000 Riverside Ave. Suit,e 307,
"VERSAL ORGANIZATION FOR PEACE THROUGH LAW AND JUSTICE, INCORPORATED",IDOMNP,8122 33RD AVENUE NORTH                    P.O. BOX 41606                            ST. PETERSBURG,FL33743-8606  8122 33RD AVENUE NORTH,,P.O. BOX 416
"VES THOMAS ROTUNDA INJURY LAW GROUP, P.A",ADOMP,2651 20th Street                                                                    Vero Beach,FL32960     US2651 20th Street,,
"VES, THOMAS, ROTUNDA & FOSTER INJURY LAW GROUP, P.A.",IDOMP,3885 20TH STREET                                                                    VERO BEACH,FL32960     US3885 20TH STREET,,
"VEY LAW FIRM, PERSONAL INJURY ATTORNEYS, P.A.",ADOMP,13400 PARKER COMMONS BLVD                                                           FORT MYES,FL33912     US13400 PARKER COMMONS BLV,D,
"VEY STUART HYMAN, CRIMINAL TRIAL ATTORNEY, LLC",IFLAL,701 S. HOWARD AVENUE                      SUITE 106-387                             TAMPA,FL33606     US701 S. HOWARD AVENUE,,SUITE 106 -
VIN INJURY LAW P.A.,ADOMP,4280 CLEVELAND AVENUE                                                               FORT MYERS,FL33901     US4280 CLEVELAND AVENUE,,
"WARD COUNTY TRIAL LAWYERS ASSOCIATION, INC.",ADOMNP,5645 Coral Ridge Drive                                                              CORAL SPRINGS,FL33076     US5645 Coral Ridge Drive,,
"WARD INJURY CLINIC, P.A.",IDOMP,2901 W OAKLAND PARK BLVD SUITE B20                                                  OAKLAND PARK,FL33311       2901 W OAKLAND PARK BLVD,SUITE B20,
WASHINGTON TRIAL GROUP PLLC,AFLAL,37 N. Orange Ave.                                                                   ORLANDO,FL32801     US37 N. Orange Ave.,,
"WORKERS' COMPENSATION TRIAL GROUP, P.A.",IDOMP,11729 Lake Butler Blvd.                                                             Windermere,FL34786     USP.O. Box 945,,
X INJURY ATTORNEYS MANAGEMENT INC,IDOMP,601 BRICKELL KEY                          700                                       MIAMI,FL33131       3320 CRAIL WAY,,
X JUSTICE LAW LLC,AFLAL,8646 TRISTAN DRIVE                                                                  JACKSONVILLE,FL32210       8646 TRISTAN DRIVE,,
XANDER TRIAL LAW LLC,AFLAL,"775 East Merritt Island Cswy., Ste. 320                                             MERRITT ISLAND",FL32952     USPOST OFFICE BOX 540189,,
"Y FOWLER DAVIS TRIAL ATTORNEYS, P.A.",IDOMP,8115 Main Street                                                                    Bokeelia,FL33922     US8115 Main Street,,
Y INJURY LAW LLC,AFLAL,13310 SW 1 STREET                                                                   MIAMI,FL33184       13310 SW 1 STREET,,
Y JUSTICE LEGAL SERVICES INC.,ADOMNP,8040 SUGAR PINE BLVD                                                                LAKELAND,FL33810     US8040 SUGAR PINE BLVD,,
"Y JUSTICE PARALEGALS, INC.",IDOMP,6779 KNIGHTSWOOD DR                                                                 ORLANDO,FL32818     USPO BOX 540028,,
"YTON TRIAL LAWYERS, PLLC",AFLAL,401 E. LAS OLAS BLVD. 130-172                                                       FORT LAUDERDALE,FL33301     US401 E. LAS OLAS BLVD. 13,0-172,
"Z LAW GROUP - TRIAL LAWYERS, INC.",ADOMP,9155 S. Dadeland Blvd.                                                              Miami,FL33156     US9155 S. Dadeland Blvd.,,SUITE 1218
"Z TRIAL LAW, PLLC",AFLAL,9100 SOUTH DADELAND BOULEVARD             SUITE 1500                                MIAMI,FL33156     US9100 SOUTH DADELAND BOUL,EVARD,SUITE 1500
